County,Public School District,School Name,School Bldg Number,Administrator,Address,City,State,Zip,Phone Number,Email Address,Web Site Address,Grade,Profit/Non-Profit,Accredited,Residential School,Special Education,Gifted,,,
Snohomish,Edmonds,A Journey School,804M,Christa Giblin-Niven,21500 Cypress Way  Building B,Lynnwood,WA,98036-7939,425.445.9718,christa@ajourneyschool.com,www.ajourneyschool.com,P-1,P,NWAIS,,,,,,
King,Seattle,Academy for Precision Learning ,1483,"Jennifer Annable
Merit Malling","5031 University Way NE
(Mail: PO Box 51241
Seattle 98115-1241)",Seattle,WA,98105-4341,206.427.0115,"jennifer@aplschool.org
admin@aplschool.org",www.aplschool.org,K-12,NP,,,Yes,,,,
Snohomish,Marysville,Academy Northwest (formerly Academy NW/Marysville Campus 2017),803W,Denise Sumner,"514 State Ave  Suite 108
(Mail: PO Box 66839
Seattle WA 98166)",Marysville,WA,98270-4541,"360.658.0105
206.246.9227",Dsumner@academynorthwest.net,www.academynorthwest.org,K-12,NP,NWAC,,Yes,Yes,,,
King,Tukwila,Academy Schools/Children’s Academy,8240,"Jennifer Sargent, Director",14601 Interurban Ave S,Tukwila,WA,98168-4652,206.588.0860,"sargent@academyschools.org
administration@academyschools.org",www.academyschools.org,P-12,NP,AESD,,Yes,Yes,,,
King,Seattle,Alcuin School,8580,Christine Williams,216 W Boston,Seattle,WA,98119-2641,206.286.0771,chris@alcuinschool.com,www.alcuinschool.com,P-1,P,,,,,,,
King,Seattle,Alfajer School,804O,Balasim Abdelaziz,"8430 Rainier Ave S
(Mail: 3809 30th Ave W
Seattle WA 98199-7706)",Seattle,WA,98118-4655,206.747.9036,bal-aziz@hotmail.com,,K-12,NP,,,,,,,
Whatcom,Mount Baker,"Alger Learning Center, Inc.",8946,John Lackey,121 Alder Dr,Sedro-Woolley,WA,98284-8862,360.595.2630,freedom@independent-learning.com,www.independent-learning.com,K-12,P,,,,,,,
Spokane,Spokane,All Saints Catholic School,8196,Kathy Hicks,3510 E 18th Ave,Spokane,WA,99223-3813,509.534.1098 x 215,khicks@dioceseofspokane.org,www.allsaintsspokane.org,P-8,NP,WCEA,,,,,,
Pierce,Puyallup,All Saints School,8128,Amy Orm,504 2nd St SW,Puyallup,WA,98371-5801,253.845.5025,aorm@allsaintsparish.com,www.allsaintspuyallup.org,P-8,NP,WCEA,,,,,,
Pierce,Fife,All Saints School,8469,Amy Orm,2323 54th Ave E,Fife,WA,98424-1918,253.922.5360,aorm@allsaintsparish.com,www.allsaintspuyallup.org,P-2,NP,WCEA,,,,,,
King,Seattle,Amazing Grace Christian School,8343,Dr. David-Paul Zimmerman,10056 Renton Ave S,Seattle,WA,98178-2255,206.723.5526,"drzimmerman@agcschool.org
m.zimmerman@agcschool.org",www.agcschool.org,P-2,NP,,,,,,,
King,Bellevue,America's Child Montessori,8654,Linda Kebely,14340 NE 21st,Bellevue,WA,98007-3721,425.641.5437,dkebely@msn.com,www.americaschild.net,P-3,P,,,,,,,
Pierce,Tacoma,Annie Wright Schools (formerly Annie Wright School 2014),8130,Christian Sullivan,827 Tacoma Ave N,Tacoma,WA,98403-2899,253.272.2216,christian_sullivan@aw.org,www.aw.org,P-12,NP,NAIS,Yes,,,,,
King,Issaquah,Arbor Schools (formerly Eastside Montessori Ed Foundation dba Arbor Schs  (formerly Eastside Montessori Ed Foundation 2011) 2012),8479,Sean O'Brien,1107 228th Ave SE,Sammamish,WA,98075-9509,425.392.3866,sean@arborschools.com,www.arborschools.com,P-6,NP,,,,,,,
Snohomish,Everett,Archbishop Thomas J. Murphy High School,8883,Steve Schmutz,12911 39th Ave SE,Everett,WA,98208-6159,425.379.6363,sschmutz@am-hs.org,www.archbishopmurphys.org,9-12,NP,WCEA,,,,,,
Snohomish,Lakewood,Arlington Christian Schools (formerly Highland Christian Schools 2016; formerly Highlands Christian School),8931,Wendy Tavenner,"2425 200th St NE
(Mail: PO Box 3337
Arlington 98223-3337)",Arlington,WA,98223-9757,360.652.2988,wtavenner@hcswa.org,www.hcswa.org,K-12,NP,,,,,,,
King,Bellevue,Asia Pacific Language School,802P,Sharon Gao,"2015 Richards Rd
(Mail: 14040 NE 8th St  Ste 301
Bellevue WA 98007-4122)",Bellevue,WA,98005-3943,425.641.1703,"asianlanguage@hotmail.com
sharong@apls.org",www.apls.org,P-1,NP,AESD,,,,,,
Whatcom,Bellingham,Assumption Catholic School,8215,Dan Anderson,2116 Cornwall Ave,Bellingham,WA,98225-3699,360.733.6133,danderson@school.assumption.org,www.school.assumption.org,P-8,NP,WCEA,,Yes,,,,
Walla Walla,Walla Walla,Assumption Grade School,8212,John Lesko,2066 E Alder St,Walla Walla,WA,99362-2699,509.525.9283,jlesko@thewwcs.com,www.wallawallacatholicschools.com,P-8,NP,WCEA,,Yes,Yes,,,
Spokane,Spokane,Assumption School,8175,Timothy (TJ) Romano,3618 W Indian Trail Rd,Spokane,WA,99208-4734,509.328.1115,tromano@dioceseofspokane.org,www.assumptionspokane.org,P-8,NP,WCEA,,,,,,
King,Seattle,Assumption St. Bridget School,8028,Kathleen Conklin,6220 32nd Ave NE,Seattle,WA,98115-7233,206.524.7452,kconklin@asbschool.org,www.asbschool.org,P-8,NP,WCEA,,,,,,
King,Auburn,Auburn Adventist Academy,8096,Peter Fackenthall,5000 Auburn Way S,Auburn,WA,98002-7204,253.939.5000,peterfackenthall@gmail.com,www.auburnacademy.org,9-12,NP,SDA,Yes,,,,,
Whatcom,Ferndale,Baker View Christian School,8755,MaryAnn Barrett,5353 Waschke Rd,Bellingham,WA,98226-9612,360.384.8155,bakerviewchristian@gmail.com,www.bakerviewchristianschool.com,K-12,NP,SDA,,,,,,
Pierce,Tacoma,Bellarmine Preparatory School,8132,Cindy Davis,2300 S Washington St,Tacoma,WA,98405-1399,253.752.7701,davisc@bellarmineprep.org,www.bellarmineprep.org,9-12,NP,WCEA,,,,,,
King,Bellevue,Bellevue Children's Academy,8292,Yuka Shimizu,14600 NE 24th St,Bellevue,WA,98007-3723,425.556.0791,yukashimizu@bcacademy.com,www.bcacademy.com,P-1,P,,,,,,,
King,Bellevue,Bellevue Children's Academy  2nd Location,801T,Yuka Shimizu,14640 NE 24th St,Bellevue,WA,98007-3723,425.556.0791,yukashimizu@bcacademy.com,www.bcacademy.com,2-5,P,,,,,,,
King,Northshore,Bellevue Christian Mack Elementary,8875,Kevin Dunning,"18250 168th Pl NE
(Mail: 1601 98th Ave NE
Clyde Hill 98004-3400)",Woodinville,WA,98072-9616,425.485.1824,kevin.dunning@bellevuechristian.org,www.bellevuechristian.org,P-6,NP,CSI,,,,,,
King,Bellevue,Bellevue Christian School,8091,Kevin Dunning,1601 98th Ave NE,Clyde Hill,WA,98004-3400,425.454.4402,kevin.dunning@bellevuechristian.org,www.bellevuechristian.org,7-12,NP,CSI,,Yes,Yes,,,
King,Bellevue,Bellevue Montessori School,8336,"Susan Locke, Med",2411 112th Ave NE,Bellevue,WA,98004-2048,425.454.7439,info@bellmontessori.org,www.bellmontessori.org,P-6,P,,,,,,,
Whatcom,Bellingham,Bellingham Christian School,8216,Shawn Cunningham,1600 E Sunset Dr,Bellingham,WA,98226-5631,360.733.7303,cunningham@bellinghamchristianschool.org,www.bellinghamchristianschool.org,P-8,NP,,,,,,,
King,Bellevue,Bel-Red Bilingual Academy,1460,Sue Tang,15061 Bel-Red Rd,Bellevue,WA,98007-4211,425.283.0717,principal@brbacademy.com,www.brbacademy.com,P-3,P,NWAC,,,,,,
King,Seattle,Bertschi School,8432,Rafael del Castillo,2227 10th Ave E,Seattle,WA,98102-4177,206.324.5476,rafaeldc@bertschi.org,www.bertschi.org,P-5,NP,NAIS,,,,,,
Kitsap,South Kitsap,Bethany Lutheran Elementary,8373,Shu-Ting Lai,151 Tremont St W,Port Orchard,WA,98366-3737,360.876.1300,bethany.lutheran@wavecable.com,www.BethanyLutheranES.org,P-8,NP,,,,,,,
Benton,Kennewick,Bethlehem Lutheran School,8001,Eric Haan,2505 W 27th Ave,Kennewick,WA,99337-2911,509.582.5624,bls-office@blcbls.org,www.blcbls.org,P-8,NP,NLSA,,,,,,
King,Bellevue,Big Brains Education,803X,David Zook,435 108th Ave NE,Bellevue,WA,98004-5536,425.653.1222,kinnikinik@gmail.com,bigbrainsprep.com,6-12,NP,NWAC,,Yes,Yes,,,
Cowlitz,Longview,Big Leaf Montessori School,803Y,Alicia Jackson,1428 22nd Ave,Longview,WA,98632-2828,360.200.8976,bigleafmontessori@gmail.com,bigleafmontessori.edu,1-6,NP,,,,,,,
King,Seattle,Billings Middle School,8530,Ann-Evan Williams,7217 Woodlawn Ave NE,Seattle,WA,98115-5335,206.547.4614,anneevanw@billingsmiddleschool.org,www.billingsmiddleschool.org,6-8,NP,NAIS,,,,,,
King,Seattle,Bishop Blanchet High School,8029,Sam Procopio,8200 Wallingford Ave N,Seattle,WA,98103-4599,206.527.7701,sprocopio@bishopblanchet.org,www.bishopblanchet.org,9-12,NP,WCEA,,,,,,
King,Bellevue,BK Academy,804P,Meera Shin,"14224 Bel Red Rd
(Mail: 6236 122nd Ave SE
Bellevue 98006-4445)",Bellevue,WA,98007-3911,425.449.2060,kaymypooch@yahoo.com,,P-5,P,,,,,,,
King,Bellevue,BK Play Academy for Gifted Children,800A,Ben Kwak,"14224 Bel Red Rd
(Mail: 6236 122nd Ave SE
Bellevue 98006-4445)",Bellevue,WA,98007-3911,425.633.2477,info@bkplay.org,www.bkplay.org,P-5,NP,,,,Gifted,,,
King,Tahoma,Blossoming Hill Montessori,801U,Teresa Marie Falavigna,23855 SE 216th St  ,Maple Valley,WA,98038-8402,425.276.5649,"teresa@blossominghill.org
office@blossominghill.org",www.blossominghill.org,P-6,P,,,,,,,
Pierce,Sumner,Bonney Lake Christian Academy,803Z,Susan Kobes,8201 Locust Ave E,Bonney Lake,WA,98391-8548,253.507.0235,"
susan.kobes@bonneylakechristianacademy.org",www.bonneylakechristianacademy.org,K-8,NP,,,,,,,
Okanogan,Brewster,Brewster Adventist Christian School,805E,John McCombs,115 Valley Rd,Brewster,WA,98812-9512,509.689.3213,"jmmcombs@brewsteradventistschool.com
jmguitars@gmail.com",www.brewsteradventistschool.com,P-9,NP,,,,,,,
Whatcom,Ferndale,Bridgeway Christian Academy,800D,Roxann Rose,858 W Smith Rd,Bellingham,WA,98226-9613,360.384.6500,roxann.rose@wwu.edu,www.bridgeway-christian-academy.org,K-5,NP,,,,,,,
King,Seattle,Bright Water Waldorf School (formerly Bright Water School 2016),1422,"Jayasri Ghosh, PhD",1501 Tenth Ave E  Suite 100,Seattle,WA,98102-4256,206.624.6176,jghosh@brightwaterschool.org,www.brightwaterschool.org,P-8,NP,,,,,,,
King,Lake Washington,Brightmont Academy--Redmond Campus (formerly Bellevue Campus 2015; formerly Educational Advancement Academy 2011  (now owned by Apex Learning)),8534,Julie Smith,"7345 164th Ave NE
(Mail: 1215 Fourth Ave  Suite 1500
Seattle WA 98161-1001)",Redmond,WA,98052-7846,425.373.0800,redmond@brightmontacademy.com,www.brightmontacademy.com ,6-12,P,NWAC,,,,,,
King,Issaquah,Brightmont Academy--Sammamish Campus (formerly Educational Advancement Academy 2011),1406,Aileen Sabbatani,"4570 Klahanie Drive SE, Ste 401
(Mail: 1215 4th Ave, Ste 1500
Seattle WA 98161-1001)",Issaquah,WA,98029-5812,425.836.1600,sammamish@BrightmontAcademy.com,www.brightmontacademy.com ,6-12,P,NWAC,,,,,,
King,Seattle,Brightmont Academy--Seattle Campus (formerly Educational Advancement Academy 2011),8384,Marcia Rodes,"9750 Third Ave NE  Ste 102               
(Mail: 1215 4th Ave  Suite 1500 
Seattle 98161-1001)",Seattle,WA,98115-2022,206.284.2300,"Marcia.Rodes@brightmontacademy.com
Seattle@brightmontacademy.com",www.brightmontacademy.com ,6-12,P,NWAC,,,,,,
King,Northshore,Brightmont Academy--Woodinville Campus,805F,Ruth Wilson,13300 NE 175th St  #1,Woodinville,WA,98072-6866,425.219.4993,ruth.wilson@brightmontacademy.com,www.brightmontacademy.com ,6-12,P,,,,,,,
Snohomish,Edmonds,Brighton School,8727,David Locke,21705 58th Ave W,Mtlake Terrace,WA,98043-3127,425.640.7067,david.locke@nlcinc.com,www.brightonschool.com,P-8,P,NWAC,,,,,,
King,Northshore,Brock's Academy (formerly Northwest Academy   2011),1446,Dr. Melodee R. Loshbaugh,17636 140th Ave NE,Woodinville,WA,98072-6977,425.483.1353,melodee.loshbaugh@gmail.com,brocksacademy.com,K-12,P,                                                                                        ,,,,,,
King,Federal Way,Brooklake Christian School,8944,Nathan Golden,629 S 356th St,Federal Way,WA,98003-8651,253.517.8247,ngolden@brooklake.org,www.brooklakechristianschool.org,P-5,NP,,,,,,,
King,Auburn,Buena Vista SDA School,8097,Ronald Trautwein,3320 Academy Dr SE,Auburn,WA,98092-7341,253.833.0718,bvprincipal@bvsda.org,www.bvsda.org,P-8,NP,SDA,,,,,,
Kitsap,South Kitsap,Burley Christian School,8586,Dennis Myers,"14687 Olympic Dr SE                                              
(Mail: PO Box 729                                      
Burley  98322-0729)",Port Orchard,WA,98367-8918,253.851.8619,Dennis@bbcol.org,bbcol.org/burley-christian-school,P-12,NP,,,,,,,
Spokane,Central Valley,Calvary Chapel Christian School,1461,Judy Wangemann,16409 E Broadway Ave,Spokane,WA,99037-9542,509.921.9460,info@calvaryspokanevalley.org,www.calvarychristianspokane.com,P-8,NP,,,,,,,
Benton,Kennewick,Calvary Christian School,8406,Bobi Whinery,10611 W Clearwater Ave,Kennewick,WA,99336-8621,509.735.1002,bobiwcctc@gmail.com,www.ccstricities.org,P-8,NP,,,,,,,
Clark,Camas,Camas Christian Academy (formerly Bright Futures Christian School (2013) and formerly Bright Futures Learning Center) (2010),1497,Cindie Boyles,717 SE Everett Rd,Camas ,WA,98607-7164,360.835.0558,principal@camaschristianacademy.org,www.camaschristianacademy.org,P-9,NP,NWAC,,,Yes,,,
Spokane,Mead,Can Learn Christian Academy (formerly Can Learn Academy  2012),1402,Carli Robinson,"12611 N Wilson St
(Mail: PO Box 9233 
Spokane 99208-9233)",Mead,WA,99021-8932,509.362.3418,canlearnacademy@gmail.com,www.canlearnacademy.org,K-12,NP,,,Yes,Yes,,,
Thurston,North Thurston,Capital Montessori School,802Q,Merissa White,730 Lilly Rd SE,Olympia,WA,98501-2115,360.438.3639,merissa@capitalmontessorischool.com,www.capitalmontessorischool.com,K-8,P,,,,,,,
Kitsap,Bainbridge Island,Carden Country School,8927,Christopher Harvey,"6974 Island Center Rd NE
(Mail: PO Box 10160 
Bainbridge 98110-1618)",Bainbridge Island,WA,98110-1618,206.842.2721,admin@cardencountryschool.org,www.cardencountryschool.com,K-8,NP,,,,,,,
Chelan,Wenatchee ,Cascade Christian Academy,8005,Stephanie Gates,600 N Western Ave,Wenatchee,WA,98801-1204,509.662.2723,stephanie.gates@ccawenatchee.org,www.ccawenatchee.org,K-12,NP,SDA,,,,,,
Pierce,Puyallup,Cascade Christian Junior High and High School (formerly Cascade Christian Schools-Junior/Senior High School) (2009),8237,Dr. Ken Friesen,811 21st St SE,Puyallup,WA,98372-4760,253.445.9706,friesenk@cascadechristian.org ,www.cascadechristian.org,7-12,NP,ACSI,,,,,,
Pierce,Bethel,Cascade Christian Schools-Frederickson Elementary (correction of spelling) (2009),8829,Tina deVries,3425 176th St E,Tacoma,WA,98446-1209,253.537.9339,devriest@cascadechristian.org,www.cascadechristian.org,P-6,NP,ACSI,,,,,,
Pierce,Sumner,Cascade Christian Schools—McAlder Elementary,804C,Tim Lorenz,15502 96th St E,Puyallup,WA,98372-4439,253.841.1776,LorenzT@cascadechristian.org,www.cascadechristian.org,P-6,NP,ACSI,,,,,,
Pierce,Puyallup,Cascade Christian Schools-Puyallup Elementary,8757,Terry Broberg,601 9th Ave SE     Suite B,Puyallup,WA,98372-3832,253.841.1776,terry@cascadechristian.org ,www.cascadechristian.org,K-6,NP,ACSI,,,,,,
Whatcom,Bellingham,Cascades Montessori Middle School,803i,Michael McCune,2710 McKenzie Ave,Bellingham,WA,98225-6940,360.306.8723,info@cascadesmiddle.org,www.cascadesmiddle.org,7-8,NP,,,,,,,
King,Lake Washington,Cascadia Montessori School,8470,Marilyn J. Franklin,4239 162nd Ave NE,Redmond,WA,98052-5469,425.881.2885,mfranklin@cascadiamontessori.com,www.cascadiamontessori.com,K-4,P,,,,,,,
Clark,Evergreen 114,Cascadia School,8969,Danielle Benge,10606 NE 14th St,Vancouver,WA,98664-4304,360.944.8096,admin@cascadiaschool.org,cascadiaschool.org,1-8,NP,,,,,,,
Spokane,Spokane,Cataldo School,8191,Dr. Mark Selle,455 W 18th Ave,Spokane,WA,99203-2099,509.624.8759,mselle@cataldo.org,www.cataldo.org,P-8,NP,WCEA,,,,,,
King,Lake Washington,Cedar Crest Academy,800U,Heather Carpenter,2125 112th Ave NE,Bellevue,WA,98004-2948,425.454.1234,heatherc@cedarcrestacademy.org,www.cedarcrestacademy.org,P-4,P,,,,,,,
King,Bellevue,Cedar Park Christian School--Bellevue Campus (formerly Neighborhood Christian School) (2010),8665,Dr. Clint Behrends/Susan Zirschky,625 140th Ave NE,Bellevue,WA,98005-3498,425.746.3258,susan.zirschky@cedarpark.org,www.cpcsschools.com,P-6,NP,NWAC,,,,,,
Snohomish,Edmonds,Cedar Park Christian School--Lynnwood Campus (Formerly North Sound Christian Schools-Lynnwood Campus) (2009),8660,Jan Isakson,17931 64th Ave W,Lynnwood,WA,98037-7106,425.742.9518,jan.isakson@cedarpark.org,www.cpcsschools.com,P-6,NP,NWAC,,,,,,
Snohomish,Everett,Cedar Park Christian School—Mill Creek Campus (formerly Everett Campus  (2013)  (formerly Cedar Park Christian School) (2010)),8537,"Dr. Clint Behrends
Garron Smith","13000 21st Dr SE                               
(mail: PMB 641 13300 Bothell-Everett Hwy
Mill Creek  98012-5312)",Everett,WA,98208-7103,425.337.6992,garron.s@cedarpark.org,www.cpcsschools.com,P-8,NP,NWAC,,,,,,
Snohomish,Edmonds,Cedar Park Christian School--Mountlake Terrace Campus  (formerly North Sound Christian Schools-Jr/Sr High Campus) (2009),8935,Al Carpenter,23607 54th Ave W,Mountlake Terrace,WA,98043-5238,425.774.7773,al.carpenter@cedarpark.org,www.cpcsschools.com,7-12,NP,NWAC,,,,,,
King,Northshore,Cedar Park Christian Schools,8771,Dr. Clinton Behrends,16300 112th Ave NE,Bothell,WA,98011-1535,425.488.9778,clint.b@cedarpark.org,www.cpcsschools.com,P-12,NP,NWAC,,,,,,
King,Tahoma,Cedar River Montessori School,8620,Erin Karnofski,15828 SE Jones Rd,Renton,WA,98058-8141,425.271.9614,misserin@cedarrivermontessori.org,www.cedarrivermontessori.org ,P-8,NP,,,,,,,
Clark,Battle Ground,Cedar Tree Classical Christian School (formerly Christian Classical School) (2009),1487,Tom Bradshaw,20601 NE 29th Ave                  ,Ridgefield,WA,98642-8675,360.887.0190,tbradshaw@cedartreeschool.org,www.cedartreeschool.org,K-12,NP,,,,,,,
Whatcom,Bellingham,Cedar Tree Montessori,8390,Carrie Bishop Cruz,2114 Broadway Ave,Bellingham,WA,98225-3308,360.714.1762,carrie.bishop-cruz@cedar-tree.org,www.cedar-tree.org,P-6,NP,,,,,,,
Jefferson,Chimacum,Cedarbrook Adventist Christian School,8027,Gregory A. Reseck,"461 Kennedy Rd                                                 
(Mail: PO Box 150                       
Port Hadlock 98339-0150)",Port Hadlock,WA,98339-9719,360.385.4610,greseck56@gmail.com,cedarbrookadventistschool.com,1-8,NP,SDA,,,,,,
Lewis,Centralia,Centralia Christian School,8616,Ann Stout,"1315 South Tower Ave
(Mail: PO Box 1209 
Centralia 98531-0726)",Centralia,WA,98531-2340,360.736.7657,astout@centraliachristianschool.org,www.centraliachristianschool.org,P-10,NP,,,,,,,
Pierce,University Place,Charles Wright Academy,8147,Matt Culberson,7723 Chambers Creek Rd W,University Place,WA,98467-2099,253.620.8311,mculberson@charleswright.org,www.charleswright.org,P-12,NP,NAIS,,,,,,
King,Bellevue,Chestnut Hill Academy South Campus,1463,Holly Senaga,13633 SE 26th St,Bellevue,WA,98005-4209,425.372.2800,hsenaga@chestnuthillacademy.com,www.chestnuthillacademy.com,K-5,P,NWAIS,,,,,,
Benton,Richland,Childrens Garden Montessori,8225,Cheryl Ornstein,2440 Garlick Blvd,Richland,WA,99354-1786,509.375.1638,Director.richland@childrensgardentricities.com ,,1-2,p,,,,,,,
King,Renton,Children's Institute for Leanring Differences (formerly Child School-New Heights School at Children's Institute for Learning Differences (CHILD) (formerly Child School - New Heights School at Children's Inst  2017),8958,Dominic Jimenez,2640 Benson Rd S,Renton,WA,98055-5106,206.232.8680 ext. 201,dominicj@CHILDnow.org,www.childrensinstitute.com,K-12,NP,,,Yes,,,,
Kitsap,Central Kitsap,Christ the King Lutheran School,800E,Chris Hintz,8065 Chico Way NW,Bremerton,WA,98312-1049,360.692.8799,principal@ctk-wels.org,www.ctk-wels.org,P-8,NP,,,,,,,
Benton,Richland,Christ the King School,8003,Sheila LaSalle,1122 Long Ave,Richland,WA,99354-3315,509.946.6158,Slasalle@ckschool.net,www.ckschoolrichland.org,P-8,NP,,,,,,,
King,Seattle,Christ the King School,8031,Joanne Cecchini,415 N 117th St,Seattle,WA,98133-8309,206.859.5111,jcecchini@ckseattle.org,www.ckseattle.org,P-8,NP,WCEA,,,,,,
Yakima,Yakima,Christ the Teacher Catholic School (formerly St. Paul Cathedral School 2017),8231,Heather Remillard ,5508 W Chestnut Ave,Yakima,WA,98908,509.575.5604,hremillard@stpaulsch.org,www.stpaulsch.org,P-8,NP,,,,,,,
King,Federal Way,Christian Faith School,8772,Debbie Schindler,33645 20th Ave S,Federal Way,WA,98003-7743,253.943.2500,DebbieS@christianfaithschool.com,www.christianfaithschool.com,P-12,NP,NWAC,,,,,,
Lincoln,Reardan-Edwall,Christian Heritage School,8696,Jonathan Belgarde,48009 Ida Ave E   ,Edwall,WA,99008-8502,509.236.2224,chsprincipal@centurytel.net,chspatriots.com,K-12,NP,,,,,,,
Yakima,Zillah,Christian Worship Center Academy (formerly Christian Worship Center Elementary 2017),8398,Daren Fickel,"204 Cheyne Rd                    
(Mail: PO Box 747                    
Zillah 98953-0747)",Zillah,WA,98953-9764,509.829.6935,daren.fickel@gmail.com,www.cwczillah.org,P-12,NP,,,,,,,
King,Northshore,Chrysalis School,8766,Karen L. Fogle,"15900 Woodinville-Red RD
(Mail: 14241 NE Wdnvlle Dvll Rd #243
Woodinville 98072-8564)",Woodinville,WA,98072-4541,425.481.2228,karenf@chrysalis-school.com,www.chrysalis-school.com,7-12,P,NWAC,,Yes,Yes,,,
King,Northshore,Chrysalis School,8897,Karen L. Fogle,"17005 140th Ave NE
(Mail: 14241 NE Wdnvlle Dvll Rd  #243
Woodinville 98072-8564)",Woodinville,WA,98072-6902,425.481.2228,karenf@chrysalis-school.com,chrysalis-school.com,K-6,P,NWAC,,Yes,Yes,,,
Clark,Battle Ground,Columbia Adventist Academy,8012,Jeff Jackson,11100 NE 189th St,Battle Ground,WA,98604-9496,360.687.3161,jackje@caaschool.org,caaschool.org,9-12,NP,SDA,,,,,,
Stevens,Colville,Colville Valley Junior Academy,1477,June Graham,139 E Cedar Lp,Colville,WA,99114-9237,509.684.6830,robjunegraham@gmail.com,www.mycvja.org,K-9,NP,SDA,,,,,,
Thurston,North Thurston,Community Christian Academy,8311,Ken DeLeon,4706 Park Center Ave NE,Lacey,WA,98516-5338,360.493.2223,kdeleon@foundationcampus.org,www.olympiachristianschool.org,P-8,NP,,,,,,,
Pierce,Tacoma,Community Montessori ,1496,CathyRaye Hyland,1407 South I St,Tacoma,WA,98405-5026,253.627.7554,cathyland@comcast.net,www.communitymontessori.net,P-8,NP,,,,Yes,,,
King,Seattle,Concordia Lutheran School,8032,Jodie Laing,7040 36th Ave NE,Seattle,WA,98115-5966,206.525.7407,admin@concordiaseattle.com,www.concordiaseattle.com,P-8,NP,NLSA,,,,,,
Snohomish,Monroe,Cornerstone Academy,1464,Michelle Jones,16910 161st Ave SE,Snohomish,WA,98290-6615,425.892.3030,"michelle.jones@thecornerstoneacademy.org
office@thecornerstoneacademy.org",www.thecornerstoneacademy.org,P-12,NP,,,,,,,
Clark,Evergreen 114,Cornerstone Christian Academy (formerly Cornerstone Christian School–2014),8683,"William Gibbons
Michael Hoff",7708 NE 78th St,Vancouver,WA,98662-3632,360.256.9715,"bgibbons@ccak12.net
mhoff@ccak12.net",www.ccak12.net,P-8,NP,NWAC,,,,,,
Whatcom,Lynden,Cornerstone Christian School,8587,Darryn Kleyn,8872 Northwood Rd,Lynden,WA,98264-9363,360.318.0663,dkleyn@cornerstoneschool.us,www.cornerstoneschool.us,1-12,NP,,,,,,,
Thurston,Tumwater,Cornerstone Christian School,8966,Tricia Davis,6601 Fairview Rd SW,Olympia,WA,98512-7052,360.923.0071,"tricia.davis@ccsoly.com
cornerstoneolympia@gmail.com",www.ccsoly.com,P-8,NP,,,,,,,
King,Lake Washington,Countryside Montessori School,8858,Teresa S. Smith,13630 100th Ave NE Bldg 2,Kirkland,WA,98034-5200,425.823.2211,triesmith@hotmail.com,www.countrysidemontessorichildcarecenter.com,P-3,P,,,,,,,
Lincoln,Reardan-Edwall,Countryside SDA Elementary (Formerly Countryside Schl)   (2010),8458,Phyllis Radu,12107 W Seven Mile Rd,Spokane,WA,99224-9315,509.466.8982,countrysidesda@gmail.com,http://www.csdae.org,1-8,NP,SDA,,,,,,
Whatcom,Lynden,Covenant Christian School,8474,Fred Hanko,9088 Northwood Rd,Lynden,WA,98264-9389,360.354.5436,ccslyndenwa@juno.com,,K-8,NP,,,,,,,
Pierce,Tacoma,Covenant High School,8265,Dave Miller,620 S Shirley St,Tacoma,WA,98465-2531,253.759.9570,dmiller@chstacoma.org  ,chstacoma.org,9-12,NP,ACSI,,,,,,
Lewis,White Pass,Cowlitz School at the Confluence,803J,Cindie Furman,"408 A Craig Road
(Mail: PO Box 509 
Packwood WA 98361-0509)",Packwood,WA,98361,360.464.2311,Cowlitzschoolattheconfluence@gmail.com,,7-12,NP,,Yes,,,,,
Grant,Moses Lake,Crestview Christian School,8658,Melissa Wallen,1601 W Valley Rd,Moses Lake,WA,98837-1466,509.765.4632,mrswallen@hotmail.com,www.crestviewadventist.org,P-9,NP,SDA,,,,,,
Kitsap,Central Kitsap,"Crosspoint Christian School (formerly Crosspoint Academy and formerly Kings West School) (2009, 2012)",8367,"Andy Alford
Nick Sweeney",4012 Chico Way NW ,Bremerton,WA,98312-1334,360.377.7700,"andy.alford@gatewaychristianschools.org
nick.sweeney@gatewaychristianschools.org",www.gatewaychristianschools.org,K-12,NP,NWAC,,,,,,
Snohomish,Edmonds,Cypress Adventist School,8164,Dea Bienhoff,21500 Cypress Way  Suite A,Lynnwood,WA,98036-7999,425.775.3578,bienhoff@cypresssda.com,www.cypressschool.org,P-8,NP,SDA,,,,,,
King,Kent,Dancing Pines Montessori (formerly The Well-Trained Mind Montessori 2017),802L,Kelly Severson-Kunz,19455 136th Place SE,Renton,WA,98058-7738,206.769.1331,kellygirlkunz@comcast.net,www.welltrainedmindmontessori.com,P-4,P,,,,Yes,,,
King,Bellevue,Dartmoor School--Bellevue ,8933,Andrew Wahl,"13401 Bel Red Road                          
(Mail: 2340 130th Ave NE Ste 110                          
Bellevue WA 98005-1763)",Bellevue,WA,98005-2322,425.885.1123,andrew@dartmoorschool.org,www.dartmoorschool.org,1-12,P,NWAC,,Yes,,,,
King,Lake Washington,Dartmoor School—Bothell (formerly Dartmoor School–Woodinville 2016),8261,Andrew Wahl,"11812 North Creek Parkway  N
(Mail: 2340 130th Ave NE   Ste 110      
 Bellevue 98005-1763)",Bothell,WA,98011-8202,425.885.1123,andrew@dartmoorschool.org,www.dartmoorschool.org,1-12,P,NWAC,,Yes,,,,
King,Issaquah,Dartmoor School--Issaquah,8337,Andrew Wahl,"22500 SE 64th Pl  #130
(Mail: 2340 130th Ave NE Ste 110)
Bellevue WA 98005-1763)",Issaquah,WA,98027-8111,425.885.1123,andrew@dartmoorschool.org,www.dartmoorschool.org,1-12,P,NWAC,,Yes,,,,
King,Seattle,Dartmoor School--Seattle,8066,Andrew Wahl,"9618 Roosevelt Way NE          
(Mail: 2340 130th Ave NE  Ste 110           
Bellevue WA 98005-1763)",Seattle,WA,98115-2236,425.885.1123,andrew@dartmoorschool.org,www.dartmoorschool.org,1-12,P,NWAC,,Yes,,,,
Lincoln,Reardan-Edwall,Deep Creek Hutterian School,8122,Jason Everman,3610 North Wood Rd,Reardan,WA,99029-9619,509.863.5908,jasone3@icloud.com,,K-12,NP,,,,,,,
Island,Oak Harbor,Der Kinderhuis Montessori,8881,Kari A Sanders,900 SE Dock St,Oak Harbor,WA,98277-4063,360.675.4165,dkhllcdirector@yahoo.com,www.dkhmontessori.com,P-5,P,,,,,,,
King,Seattle,Derech Emunah dba Seattle Jewish Girls High Schl,803G,Rabbi Shaul Engelsberg,"5142 S Holly St
(Mail: 5145 S Moran St
Seattle WA 98118-2901)",Seattle,WA,98118,"888.944.1043
206.790.1475",rabbiengelsberg@derechemunah.com,www.derechemunah.com,9-12,NP,,,,,,,
Walla Walla,Walla Walla,DeSales Catholic School,8211,John Lesko,919 East Sumach,Walla Walla,WA,99362-1349 ,509.525.3030,jlesko@thewwcs.com,www.thewwcs.com,9-12,NP,WCEA,,,,,,
Kitsap,Central Kitsap,Discovery Depot Montessori,1404,Constance Falconer,7333 Tracyton Blvd,Bremerton,WA,98311-9036,360.337.1400,conniefalconer@hotmail.com,discoverydepotmontessori.com,P-1,P,,,,,,,
Kitsap,South Kitsap,Discovery Montessori,8346,Starla Franks,1026 Sidney Ave  #160,Port Orchard,WA,98366-9036,360.337.5745,info@discoverymontessori.org,www.discoverymontessori.org,P-8,P,,,,,,,
King,Northshore,Dolan Learning Center LLC  (formerly Dolan Academy & Learning Center 2016; formerly Dolan Learning Center LLC),801R,Janet Dolan,18500 156th Ave NE  Ste 204,Woodinville,WA,98072-4459,425.488.3587,janet@dolanlearning.com,www.dolanlearning.com,P-12,P,NWAC,,Yes,Yes,,,
Thurston,Yelm,Eagle View Christian School,800V,Barbara Ballou,13036 Morris Rd SE,Yelm,WA,98597-9211,360.458.3090,bballou@ywave.com,www.eagleviewchristianschool.com,P-12,NP,,,,,,,
King,Bellevue,Eastside Academics School (formerly Academic Institute  2017),8835,Jennifer Vice,2495 140th Ave NE  Suite D-210,Bellevue,WA,98005-2023,425.401.6844,sherrill@eastsideschool.org,www.academicinstitute.com,6-12,P,NWAC,,,,,,
King,Bellevue,Eastside Academy,8476,Toni Esparza,1717 Bellevue Way NE                ,Bellevue,WA,98004-2853,425.452.9920,tonie@eastsideacademy.org,www.eastsideacademy.org,9-12,NP,,,,,,,
King,Lake Washington,Eastside Academy--Redmond,803K,Toni Esparza,9900 Willows Rd NE,Redmond,WA,98052-2531,425.895.2415,tonie@eastsideacademy.org,www.eastsideacademy.org,9-12,NP,,,,,,,
King,Lake Washington,Eastside Catholic School (formerly Eastside Catholic HS) (2009),8572,John T. Kennedy,232 228th Ave SE,Sammamish,WA,98074-7207,425.295.3000,jkennedy@eastsidecatholic.org,www.eastsidecatholic.org,6-12,NP,NAIS,,Yes,,,,
King,Bellevue,Eastside Christian School,8741,Mark Migliore,14615 SE 22nd St,Bellevue,WA,98007-6242,425.641.5570,mmigliore@ecswa.org,www.ecswa.org,P-8,NP,,,,,,,
King,Lake Washington,Eastside Preparatory School,8662,"Terry Macaluso, PhD",10613 NE 38th Pl,Kirkland,WA,98033-7927,425.822.5668,tmacaluso@eastsideprep.org,www.eastsideprep.org,5-12,NP,NAIS,,,,,,
King,Lake Washington,Eaton Arrowsmith Academy,804B,Wanda Risley,17946 65th St,Redmond,WA,98052-4963,604.264.8327,wrisley@eatonarrowsmith.com,www.eatonarrowsmith.com,K-12,P,,,Yes,,,,
Whatcom,Lynden,Ebenezer Christian School,8221,Jim Buss,9390 Guide Meridian Rd,Lynden,WA,98264-9798,360.354.2632,jimbuss@ebenezerchristianschool.org,www.ebenezerchristianschool.org,P-8,NP,,,Yes,,,,
Kittitas,Ellensburg,Ellensburg Christian School,8941,Tammie Lenz,407 S Anderson St ,Ellensburg,WA,98926-3805,509.925.2411,tlenz@ellensburgchristian.org,ellensburgchristian.org,K-8,NP,,,,,,,
King,Seattle,Emerald City School,803L,"Jennifer ""Nicole"" Nichols",520 Denny Way ,Seattle,WA,98109-5003,206.209.0950,nnichols@emeraldcityschool.com,www.emeraldcityschool.com,1-9,P,,,Yes,,,,
King,Bellevue,Emerald Heights Academy,8971,Kim Bentler,"3850 156th Ave SE
(Mail: 1420 NW Gilman Blvd  PMB #2144
Issaquah WA 98027)",Bellevue,WA,98006-1760,425.643.1671,EHAPrincipal@emeraldheights.org,www.emeraldheights.org,P-8,NP,,,,,,,
King,Seattle,Epiphany School,8033,Jenn Elkin,3611 E Denny Way,Seattle,WA,98122-3423,206.323.9011,jelkin@epiphanyschool.org,www.epiphanyschool.org,P-5,NP,NAIS,,,,,,
King,Bellevue,Eton School,8559,Dr. Russell Smith,2701 Bel-Red Rd,Bellevue,WA,98008-2253,425.881.4230,RussellSmith@etonschool.org,www.etonschool.com,P-8,NP,NAIS,,,,,,
Snohomish,Everett,Everett Christian School,8156,Joel Alberts,2221 Cedar St,Everett,WA,98201-2599,425.259.3213,jalberts@everettchristian.org,www.everettchristian.org,P-8,NP,CSI,,,,,,
King,Northshore,Evergreen Academy,8673,Whitney Ball,16017 118th Pl NE,Bothell,WA,98011-4151,425.488.8000,Whitney.Ball@nlcinc.com,http://bothell.evergreenacademy.net/,K-5,P,NWAC,,,,,,
Lewis,Centralia,Evergreen Academy of Arts & Sciences,8663,"Mary Ann White, Bd President",506 S Washington Ave,Centralia,WA,98531-2622,360.330.1833,Fanny24May@yahoo.com,,P-6,NP,NWAC,,,,,,
King,Federal Way,Evergreen Christian Private School (formerly Slavic Gospel Church Academy 2016),803C,Angelina Nalivayko,3405 S 336th St,Federal Way,WA,98001-9630,253.880.1021,"info@sgcacademy.org
analivayko@evergreenchristianps.org",www.sgcacademy.org,P-8,NP,,,,,,,
Thurston,Olympia,Evergreen Christian School,8332,Cyndi Pollard,1010 Black Lake Blvd SW,Olympia,WA,98502-5723,360.357.5590,cyndi@ecsolympia.com,www.ecsonline.cc,P-8,NP,NWAC,,,Yes,,,
Pierce,Puyallup,Evergreen Lutheran High School,8456,Theodore Klug,7306 Waller Road E,Tacoma,WA,98443-1105,253.946.4488,principal@elhs.org,www.elhs.org,9-12,NP,NLSA,,,,,,
King,Shoreline,Evergreen School,8034,Veronica Codrington-Cazeau,15201 Meridian Ave N,Shoreline,WA,98133-6331,206.957.1524,rcazeau@evergreenschool.org,www.evergreenschool.org,P-8,NP,NAIS,,,Yes,,,
Whatcom,Bellingham,Explorations Academy/Global Community Institute,8074,Abram Dickerson,1701 Ellis Street  Suite 215 ,Bellingham,WA,98225-4617,360.671.8085,abram@explorationsacademy.org,www.ExplorationsAcademy.org,6-12,NP,NWAC,,,,,,
King,Highline,Explorer West Middle School,8189,Evan Hundley,10015 28th Ave SW,Seattle,WA,98146-3708,206.935.0495,Evanh@explorer-west.org,www.explorerwest.org,6-8,NP,NAIS,,,,,,
King,Seattle,Fairview Christian School  (Part of North Sound Christian Schools),8859,Kent Davis,844 NE 78th St,Seattle,WA,98115-4202,206.526.0762,kentd@fcsseattle.org,www.fcsseattle.org,P-8,NP,,,,,,,
Pierce,Tacoma,Faith Lutheran School,8135,Paul Leifer,113 S 96th St,Tacoma,WA,98444-6502,253.537.2696,principal@faithtacoma.com,www.faithtacoma.com,P-8,NP,,,,,,,
Thurston,North Thurston,Faith Lutheran School,8482,Laura White,7075 Pacific Ave SE,Lacey,WA,98503-1473,360.491.1733,l.white@faithcampus.org,www.flschool.org,P-8,NP,,,,,,,
Snohomish,Arlington,Family Academy (formerly Academy NW/Family Academy  2017),8826,Diana McAlister,23420 Jordan Rd                            ,Arlington,WA,98223-9584,360.435.9423,dianamca@familyacademy.org,www.familyacademy.org,K-12,NP,NWAC,,,Yes,,,
Cowlitz,Kelso,Family House Academy,8347,Lisa L. Mustion,1220 Carroll Rd,Kelso,WA,98626-9467,360.425.7481,wisha@comcast.net,familyhouseacademy.com,K-8,NP,,,,,,,
Skagit,Anacortes,Fiddlehead Montessori School,805G,Heidi Velin,"2702 R Ave
(Mail: PO Box 1168
Anacortes WA 98221-6168)",Anacortes,WA,98221-2856,360.399.3837,fiddleheadmontessori@gmail.com,thefiddlehead.org,1-6,NP,,,,,,,
Kittitas,Ellensburg,Figs Christian School,805H,Ida Brown,415 W 14th Ave,Ellensburg,WA,98926-2425,"509.425.5565
702.808.0195 (cell)",figs.personnel@gmail.com,www.figschristianschool.weebly.com,K-8,NP,,,,,,,
Clark,Battle Ground,Firm Foundation Christian School,8480,Julie Olson,1919 SW 25th Ave,Battle Ground,WA,98604-3137,360.687.8382,jolson@ffcs.org,www.ffcs.org,P-12,NP,ACSI,,,,,,
King,Seattle,First Place Scholars School,8597,Tanya Coon,172 20th Ave,Seattle,WA,98122-5862,"206.323.6715
206.748.3514",tcoon@firstplaceschool.org,www.fpscholars.org,P-1,NP,,,,,,,
Spokane,Spokane,First Presbyterian Christian School,800B,Tracy Blue,318 S Cedar,Spokane,WA,99201-7030,509.747.9192,tracyb@spokanefpc.org,www.fpchristianschool.org,P-5,NP,,,,,,,
Clallam,Sequim,Five Acre School,8197,Autumn Piontek-Walsh,515 Lotzgesell Rd,Sequim,WA,98382-8072,360.681.7255,office@fiveacreschool.org,fiveacreschool.org,P-6,P,,,,,,,
Skagit,Mt Vernon,Foothills Christian School ,8330,Mark T. Collins,"730 N 16th St                     
(Mail: PO Box 2537                  
Mt Vernon 98273-2537)",Mt Vernon,WA,98273-3429,360.420.9749,"coho.collins@gmail.com
mcollins@foothillschristian.com",www.foothillschristian.com,P-8,NP,,,,,,,
Snohomish,Everett,Forest Park Adventist School,8793,Cynthia Miller,4120 Federal Ave,Everett,WA,98203-2117,425.258.6911,cmillerfpacs@gmail.com,www.forest24.adventistschoolconnect.org,K-8,NP,SDA,,,,,,
King,Bellevue,Forest Ridge School of Sacred Heart,8035,Mark Pierotti,4800 139th Ave SE,Bellevue,WA,98006-3015,425.641.0700,markpi@forestridge.org,www.forestridge.org,5-12,NP,NWAIS,Yes,,,,,
King,Bellevue,French Immersion School of WA,8408,Veronique Dessaud,4211 W Lk Sammamish Pkwy SE,Bellevue,WA,98008-5936,425.653.3970,vdussud@fisw.org,www.fisw.org,P-5,NP,NWAIS,,,,,,
King,Mercer Island,French-Am School of Puget Sound,8279,Eric Thuau,3795 E Mercer Way,Mercer Island,WA,98040-3849,206.275.3533,erict@fasps.org,www.fasps.org,P-8,NP,NAIS,,,,,,
Kitsap,North Kitsap,Gateway Christian Schools (formerly Christ the King Acad-2011),8341,Nick Sweeney,"705 NE Lincoln Rd                                         
(Mail: 18901 8th Ave NE           
 Poulsbo 98370-7349)",Poulsbo,WA,98370-7512,360.779.9189,nick.sweeney@gatewaychristianschools.org,www.gatewaychristianschools.org,K-5,NP,,,,,,,
King,Seattle,Giddens School,8978,Morva McDonald,620 20th Ave S,Seattle,WA,98144-2209,206.324.4847,mmcdonald@giddensschool.org,www.giddensschool.org,P-5,NP,NAIS,,,,,,
Pierce,Peninsula,Gig Harbor Academy,8389,Paul Raschke,6820 32nd St NW,Gig Harbor,WA,98335-6417,253.265.2150,raschke@gigharboracademy.org,www.gigharboracademy.org,P-5,NP,,,,,,,
King,Highline,Glendale Lutheran School,8396,Laura Garris,13455 2nd Ave SW,Burien,WA,98146-3320,206.244.6085,garris@glendalelutheranschool.org,glendalelutheranschool.org,P-8,NP,NLSA,,,,,,
Klickitat,Goldendale,Goldendale Adventist School,8379,"LeAnn Paredes, Bd Chair
David Robinson","47 Bickleton Highway
(Mail: PO Box 241
Goldendale WA 98620-0241)",Goldendale,WA,98620,509.250.3193,paradesls@yahoo.com,www.goldendaleschool.org,P-8,NP,SDA,,,,,,
Spokane,Spokane,Gonzaga Preparatory School,8176,Cindy Reopelle,1224 E Euclid Ave,Spokane,WA,99207-2899,509.483.8511,creopelle@gprep.com,www.gprep.com,9-12,NP,NWAC,,,,,,
Thurston,North Thurston,Gospel Outreach,1400,David Hill,1925 South Bay Rd,Olympia,WA,98506-3532,360.786.0070,golouise@comcast.net,www.gospeloutreach.org,1-12,NP,,,,,,,
Snohomish,Marysville,Grace Academy,8429,Timothy J. Lugg,8521 67th Ave NE,Marysville,WA,98270-7855,360.659.8517,tlugg@graceacademy.net,www.graceacademy.net,P-12,NP,ACSI,,,,,,
Ferry,Republic,Grace Christian Academy,801Z,Sarah Van Slyke,"35 N Clark Ave
(Mail: PO Box 88  
Republic 99166-0088)",Republic,WA,99166,509.994.1458,gca4families@gmail.com,gcarepublic.org,P-12,NP,,,,,,,
Yakima,Yakima,Grace Lutheran School,8228,Rebecca Hussman,1207 S 7th Ave,Yakima,WA,98902-5567,"509.457.6611
920.460.7942",principal@gracelutheranyakima.org,www.gracelutheranyakima.org,P-8,NP,,,,,,,
Yakima,Grandview,Grandview Adventist Junior Academy,8233,Richard Peterson,106 N Elm St,Grandview,WA,98930-1009,509.882.3817,richard.peterson@grandviewadventistschool.org,http://grandview23.adventistschoolconnect.org/,K-8,NP,SDA,,,,,,
Grays Harbor,Montesano,Grays Harbor Adventist Christian School,8648,Adria Hay,1216 State Route 12,Montesano,WA,98563-9621,360.249.1115,adriahay@gmail.com,http://www.ghacschool.org,K-8,NP,SDA,,,,,,
Snohomish,Mukilteo,Greater Trinity Christian Learning Academy,8409,"Dr. Paul A. Stoot, Sr.",11229 4th Ave W,Everett,WA,98204-4928,425.267.9689,gtmbcpas@frontier.com ,www.gtclaschool.org,P-1,NP,,,,,,,
King,Auburn,Green River Montessori School,8756,Diana Holz,922 12th St NE,Auburn,WA,98002-4246,253.833.7010,grms@comcast.net,www.GRMontessori.com,P-12,P,,,,,,,
Whitman,Colton,Guardian Angel St. Boniface School,8226,Lori Becker,"306 Steptoe St                                 
(Mail: PO Box 48                    
Colton  99113-0048)",Colton,WA,99113,509.229.3579,lbecker@dioceseofspokane.org,www.gasbschool.org,K-8,NP,WCEA,,,,,,
King,Seattle,Hamlin Robinson School,8743,Joan Beauregard,1701 20th Ave S,Seattle,WA,98144-4411,206.763.1167,jbeauregard@hamlinrobinson.org,www.hamlinrobinson.org,1-8,NP,NWAIS,,,,,,
Pierce,Peninsula,Harbor Christian Schools,1423,Bonnie Mudge,6509 38th Ave NW                       ,Gig Harbor,WA,98335-8301,253.857.6242,harborchs@gmail.com,www.harborchristianschools.org,P-12,NP,,,,,,,
Pierce,Peninsula,Harbor Montessori School,8667,Aimee Allen,5414 Comte Dr,Gig Harbor,WA,98335-7424,253.851.5722,aimee@harbormontessori.org,harbormontessori.org,P-9,NP,,,,,,,
King,Vashon Island,Harbor School,8256,Mark McGough,"15920 Vashon Hwy SW 
(Mail: PO Box 1912
Vashon 98070-1912)",Vashon,WA,98070,206.567.5955,mark@harborschool.org,www.harborschool.org,K-8,NP,,,,,,,
Yakima,Mount Adams,Harrah Community Christian School,8694,Marie Wegmuller,"50 Dane Ave                          
(Mail: PO Box 100                
Harrah  98933-0068)",Harrah,WA,98933,509.848.2418,mwegmuller@aol.com,www.hccschool.org,P-8,NP,,,,,,,
King,Northshore,Heritage Christian Academy,8561,Brenda Chadwick,19527 104th Ave NE,Bothell,WA,98011-2401,425.485.2585,brendac@hcabothell.org,www.hcabothell.org,P-8,NP,ACSI,,Yes,,,,
Pierce,University Place,Heritage Christian School,8296,Ian Scott,5412 67th Ave W,University Place,WA,98467-2246,253.564.6276,principal@heritagecs.net,www.heritagecs.net,P-8,NP,,,,,,,
King,Riverview,Hillside Academy (formerly Red Barn Learning Center--2011),801G,Tim Foley,"26423 NE Allen St 
(Mail: PO Box 1344                        
Duvall WA 98019-1344)",Duvall,WA,98019-8612,425.844.8608,tim@hillsideacademy.com,hillsideacademy.com,P-8,NP,,,,,,,
King,Bellevue,Hillside Student Community School,8241,Kael Sherrard,5027 159th Pl SE,Bellevue,WA,98006-3636,425.747.6448,Kael@hillsidesc.org,www.hilsidesc.org,5-12,NP,,,,,,,
King,Seattle,Holy Family Bilingual Catholic School,8041,Larkin Temme,9615 20th Ave SW,Seattle,WA,98106-2786,206.767.6640,principal@hfseattle.org,www.hfseattle.org/school,P-8,NP,WCEA,,,,,,
King,Lake Washington,Holy Family Parish School,8106,Jackie Degel,7300 - 120th Ave NE,Kirkland,WA,98033-8121,425.827.0444,jdegel@hfkschool.org,www.hfkschool.org,P-8,NP,WCEA,,,,,,
Asotin,Clarkston,Holy Family School,8000,Sharon Shelley-Ray,1002 Chestnut St,Clarkston,WA,99403-2595,509.758.6621,ssray@dioceseofspokane.org,www.holyfamilyclarkston.com,P-6,NP,NWAC,,,,,,
King,Auburn,Holy Family School,8098,Michele Corey,505 17th St SE,Auburn,WA,98002-6895,253.833.8688,principal@hfsauburn.com,www.hfsauburn.com,P-8,NP,WCEA,,,,,,
Thurston,North Thurston,Holy Family School,8340,Monica Davis,"2606 Carpenter Rd SE  
(Mail: PO Box 3700   
Lacey  WA 98509-3700)",Lacey,WA,98503-3999,360.491.7060,principal@holyfamilylacey.com,www.holyfamilylacey.org,P-8,NP,WCEA,,,,,,
King,Federal Way,Holy Innocents School of NW,8295,Dennis M.Cantwell,2530 S 298th St,Federal Way,WA,98003-4219,253.839.0788,contact@holyinnocentsnw.net,www.holyinnocentsofnw.net,K-12,NP,,,,,,,
King,Seattle,Holy Names Academy,8042,Elizabeth Swift,728 21st Ave E,Seattle,WA,98112-4058,206.323.4272,eswift@holynames-sea.org,www.holynames-sea.org,9-12,NP,NAIS,,,,,,
King,Seattle,Holy Rosary Elementary,8043,Anna Horton,4142 42nd Ave SW,Seattle,WA,98116-4202,206.937.7255,ahorton@holyrosaryws.org,www.holyrosaryws.org,P-8,NP,WCEA,,,,,,
Snohomish,Edmonds,"Holy Rosary, Edmonds",8162,Sue Venable,770 Aloha St                          ,Edmonds,WA,98020-3019,425.778.3197,susanv@holyrosaryedmonds.org,www.hrsedmonds.org,P-8,NP,WCEA,,,,,,
King,Federal Way,Holy Trinity Lutheran School,8535,Jason Kelley,2021 S 260th St,Des Moines,WA,98198-9025,253.839.6516,principal@htls-wa.org,www.holytrinitylutheranchurch.org,P-8,NP,,,,,,,
Whatcom,Bellingham,Home Port Learning Center,8088,Steve Abels,707 Astor St,Bellingham,WA,98225-4048,360.715.8860,hplced@gmail.com,www.homeportlc.com,8-12,NP,,,Yes,,,,
King,Seattle,Hope Academy,803M,"Mohamed Moalim
Abdulkadir Jama",9421 18th Ave SW,Seattle,WA,98106-2717,206.438.1778,moalim@aol.com,http://hopeacademic.org,K-8,NP,,,,,,,
King,Seattle,Hope Lutheran School,8045,Kristen Okabayashi,4456 42nd Ave SW,Seattle,WA,98116-4223,206.935.8500,kokabayashi@hopeseattle.org,www.hopeseattle.org,P-8,NP,NLSA,,,,,,
King,Shoreline,Horizon School,8865,Leah Jones,1512 NW 195th St,Shoreline,WA,98177-2820,206.546.0133,ljones@thehorizonschool.org,www.thehorizonschool.net,P-1,NP,,,,,,,
Clark,Vancouver,Hosanna Christian School,8449,Sue Bishoprick,4120 NE St Johns Rd,Vancouver,WA,98661-3226,360.906.0941,s.bishoprick@firste.org,www.hosannacs.org,P-11,NP,,,,,,,
Pierce,Tacoma,"HRRS--Juan Diego Academy (formerly Holy Rosary Schl, Oct 2012)",8137,Katie Dempsey,504 S 30th St,Tacoma,WA,98402-1104,253.272.7012,kdempsey@hrrsjda.org,www.hrrsjda.org,P-8,NP,WCEA,,,,,,
Kitsap,Bainbridge Island,Hyla Middle School,8968,Paul Carroll,7861 Bucklin Hill Rd NE,Bainbridge Island,WA,98110-2603,206.842.5988,paulc@hylamiddleschool.org,www.hylamiddleschool.org,6-8,NP,NWAIS,,,,,,
Pierce,Bethel,Imagination School of Education,8258,Fralisa M. McFall,14824 C St S,Tacoma,WA,98444-4500,253.535.2522,"imaginationschooltacoma@gmail.com
admin@imaginationschool.org",www.ImaginationSchool.org,P-10,P,,,,,,,
Skagit,Mount Vernon,Immaculate Conception Regional School,8153,Gwen Rodrigues,1321 E Division St,Mount Vernon,WA,98274-4132,360.428.3912,rodrigues@icrsweb.org,www.icrsweb.org,P-8,NP,WCEA,,,,,,
Snohomish,Everett,Immaculate Conception/Our Lady of Perpetual Help,8157,Kathy Wartelle,2508 Hoyt Ave,Everett,WA,98201-2906,425.349.7777,kwartelle@ic-olph.org,www.ic-olph.org,P-8,NP,WCEA,,,Yes,,,
King,Bellevue,Internatinal Montessori Academy,805J,Mary Cathy Williams,2227 112th Ave NE   ,BeLlevue ,WA,98004-2953,425.454.5600,info@intlmontessoriacademy.com,www.intlmontessoriacademy.com,K-3,P,,,,Yes,,,
Island,South Whidbey,Island Christian Academy,8928,Brenda Chittim,"5373 S Maxwelton Rd 
(Mail: PO Box 1048
Langley 98260)",Langley,WA,98260-9521,360.221.0919,bchittim@gmail.com,www.islandchristianacademy.com,P-12,NP,,,,,,,
Jefferson,Port Townsend,Jefferson Community School,1427,Rita Hemsley,280 Quincy St  ,Port Townsend,WA,98368-5782,360.385.0622,rhemsley@jeffersoncommunityschool.com,www.jeffersoncommunityschool.com,7-12,NP,NWAC,,,,,,
King,Bellevue,Jewish Day School,8563,Hamutal Gavish,15749 NE 4th St,Bellevue,WA,98008-4317,425.460.0200,hgavish@jds.org,www.jds.org,P-8,NP,NWAIS,,,,,,
King,Highline,JF Kennedy Catholic High School (formerly JF Kennedy Memorial High School  2009),8082,Nancy Bradish,140 S 140th St,Burien,WA,98168-3427,206.246.0500,bradishn@kennedyhs.org,www.kennedyhs.org,9-12,NP,NWAC,,Yes,Yes,,,
Stevens,Colville,Johnson Christian School,8656,Roxana Wood,661 Hwy 395 S,Colville,WA,99114-8621,509.684.8631,roxylyn1@hotmail.com,www.johnsonchristianschool.com,P-12,NP,,,,,,,
Cowlitz,Kelso,Journey Christian School,   803N                                                                                                                                                                                                                                                                                                                                                                                                                                                                                                                                                                                                                                                                                                                                       ,Bethany Edmundson,96 Garden Street,Kelso,WA,98626-1969,360.423.9250,Bethany.edmundson@yahoo.com,www.journeychristianschool.org,P-8,NP,SDA,,,,,,
Chelan,Wenatchee ,Joyful Scholars Montessori Elementary School,804S,Cara Hackenmiller,"249 N Mission
",Wenatchee,WA,98801-2003,509.699.8286,info@joyfulscholars.org,www.joyfulscholars.org,P-6,NP,,,,,,,
Walla Walla,Prescott,Jubilee Leadership Academy,8167,Rick Griffin,29 Jubilee Circle,Prescott,WA,99348-8607,509.749.2103 x 219,"rickg@jlacademy.org
learning@jlacademy.org",jlacademy.org,8-12,NP,NWAC,Yes,,,,,
King,Seattle,Kapka Cooperative School (formerly Kapka Coop Primary Schl 2011),1481,Jenifer Mahan,510 N 49th St,Seattle,WA,98103-6420,206.522.0350,"jennifermahan@kapkaschool.org
kapka@kapkaschool.org",www.kapkaschool.org,K-5,NP,,,,,,,
Clark,Camas,Kids Unlimited DBA Tree Hill Learning Centr,803O,Dana Schnell,3500 SE 196th Ave,Camas,WA,98607-8816,360.833.1230,Dana@treehillkids.com,treehillkids.com,P-1,P,,,,,,,
King,Shoreline,Kings Schools,8102,Eric Rasmussen,19303 Fremont Ave N                      ,Seattle,WA,98133-3800,206.546.7211,erasmussen@kingsschools.org,www.kingsschools.org,P-12,NP,NWAC,,,,,,
Clark,Vancouver,King's Way Christian School,8483,John Griffin,3300 NE 78 St,Vancouver,WA,98665-0656,360.574.1613 ext. 1,JohnGriffin@kwcs.org,www.kwcs.org,K-12,NP,NWAC,,,,,,
Franklin,Pasco,Kingspoint Christian School,8437,Georgia Perkins,7900 W Court St,Pasco,WA,99301-1771,509.547.6498,g.perkins@kingspoint.org,www.kingspoint.org,K-12,NP,,,,,,,
King,Lake Washington,Kirkland SDA School,8107,Ron Jacaban,5320 108th Ave NE,Kirkland,WA,98033-7517,425.822.7554,rjacaban@psaa.org,www.ksdaschool.org,K-8,NP,SDA,,,,,,
Kitsap,Central Kitsap,Kitsap Adventist Christian School,8114,Becky Rae,5088 NW Taylor Rd,Bremerton,WA,98312-8803,360.377.4542,kacschool@gmail.com,http://kacschool.org,K-8,NP,SDA,,,,,,
Yakima,Yakima,La Salle High School,8310,Ted Kanelopoulos,3000 Lightning Way,Union Gap,WA,98903-2213,509.225.2900,tedk@lasalleyakima.org,www.lasalleyakima.com,9-12,NP,WCEA,,,,,,
King,Seattle,Lake WA Girls Middle School,8299,Patricia Hearn,810 18th Ave,Seattle,WA,98122-4747,206.709.3800,phearn@lwgms.org,www.lwgms.org,6-8,NP,NWAIS,,,,,,
King,Seattle,Lakeside School,8048,Bernie Noe,14050 1st Ave NE,Seattle,WA,98125-3099,206.368.3600,bernie.noe@lakesideschool.org,www.lakesideschool.org,5-12,NP,NWAIS,,,,,,
Pierce,Clover Park,Lakewood Lutheran School,8149,Christina Murray,10202 112th St SW,Lakewood,WA,98498-1699,253.584.6024,lakewoodlutheran@gmail.com,www.lakewoodlutheran.net,P-4,NP,,,,,,,
King,Seattle,Laurel Academy (Applied Scholastics Academy of Seattle/Laurel Academy 2015; Laurel Academy added 2014),801H,Sharon West,12700 35th Ave NE,Seattle,WA,98125-4508,206.522.5992,sharon@laurelacademy.org,www.asaseattle.org,K-8,NP,,,,,,,
King,Lake Washington,Leadership Preparatory Academy (formerly L & E Academy-2015),802S,Maureen O'Shaughnessy,"316 4th Ave S
(Mail: 5116 150th Pl SW
Edmonds WA 98026-4431)",Kirkland,WA,98033-6612,"425.786.3006
206.920.8405",maureen@LEAD-Prep.org,www.LEAD-Prep.org,6-12,NP,NWAC,,Yes,Yes,,,
King,Lake Washington,Les Lilas French Bilingual Community School,804T,Virginia Harroch,"6601 132nd Ave NE 
(Mail: 11935 SE 76th St
Newcastle WA 98056-1777)",Kirkland,WA,98033-8627,425.985.1763,virginie@les-lilas.com,www.les-lilas.com,P-5,NP,,,,,,,
Lewis,Chehalis,Lewis County Adventist School,8119,Karen Carlton,"2102 Scheuber Rd S                          
(Mail: PO Box 1203                     
Chehalis 98532-1203)",Chehalis,WA,98532-9635,360.748.3213,"office@lcas.org
kcarlton@lcas.org",www.lcas.org,P-10,NP,SDA,,,,,,
Walla Walla,College Place,Liberty Christian School,8418,Robin Keala Hoe,3172 Peppers Bridge Rd,Walla Walla,WA,99362-7005,509.525.5082,kealaro@gmail.com,www.libertychristianww.org,P-8,NP,,,,,,,
Benton,Richland,Liberty Christian School,8564,Karen Bjur,2200 Williams Blvd,Richland,WA,99352-3077,509.946.0602,kbjur@libertychristian.net,www.libertychristian.net,K-12,NP,ACSI,,,,,,
Pierce,Tacoma,Life Christian Academy (formerly Life Christian Schl 2013),8353,Ross Hjelseth,1717 S Union Ave,Tacoma,WA,98405-1997,253.756.2462,rhjelseth@life-christian.org,life-christian.org,P-12,NP,NWAC,,Yes,,,,
Snohomish,Everett,Light of Faith Christian Academy,800X,Claudia Zimmerer,18008 Bothell-Everett Hwy #H,Bothell,WA,98012-6842,425.412.4192,Dylan@LightofFaith.org,www.LightofFaith.org,P-12,NP,,,,,,,
Pierce,Peninsula,Lighthouse Christian School,8998,Stephen Roddy,3008 36th St NW,Gig Harbor,WA,98335-8256,253.858.5962,sroddy@lcschool.org,www.lcschool.org,K-8,NP,ACSI,,,,,,
Kittitas,White Salmon Val,Little Oak Montessori School (formerly Little Oak Children's House-2009),8342,Naomi Bull,"1054 SE Oak St 
(Mail: PO Box 530
 White Salmon 98672-0530)",White Salmon,WA,98672,509.281.1721,admin@littleoakmontessori.com,www.littleoakmontessori.com,P-1,NP,,,,,,,
Kittitas,White Salmon Val,Little Oak Montessori School--2nd Location,802T,Naomi Bull,"871 NE Estes
(Mail: PO Box 530
White Salmon 98672-0530)",White Salmon,WA,98672-0428,509.281.1721,admin@littleoakmontessori.com,www.littleoakmontessori.com,2-6,NP,,,,,,,
King,Bellevue,Living Montessori Academy  (formerly Planet Kids Bellevue) (2010),1469,Afrose Amlani,2445 140th Ave NE,Bellevue,WA,98005-1879,425.373.5437,afrose@livingmontessori.com,www.livingmontessori.com,P-6,P,,,,,,,
Snohomish,Edmonds,Living Wisdom School of Seattle,1444,Susan McGinnis,6717 212th St SW                ,Lynnwood,WA,98036-7325,425.772.9862,susan@livingwisdomschoolseattle.org,www.livingwisdomschoolseattle.org,P-8,NP,,,,,,,
Whatcom,Lynden,Lynden Christian Schools,8222,Paul Bootsma,417 Lyncs Dr,Lynden,WA,98264-1649,360.318.9525,pbootsma@lyncs.org,www.lyncs.org,P-12,NP,CSI,,Yes,Yes,,,
Whatcom,Bellingham,Lynden Christian Schools--Evergreen Campus (2009),8936,"Glen Hendricks
Paul Bootsma",567 E Kellogg Rd,Bellingham,WA,98226-8181,360.738.8248,ghendricks@lyncs.org,www.ecsbellingham.org,P-8,NP,CSI,,Yes,,,,
Kitsap,Bainbridge Island,Madrona School,800P,Marguerite Goss,"219 Madison Ave N
(Mail: PO Box 11371
Bainbridge 98110)",Bainbridge Island,WA,98110-2503,206.855.8041,mgoss@madronaschool.org,www.madronaschool.org,P-8,NP,,,,,,,
King,Seattle,Makkah Islamic School,802F,Aishah Bomani,3613 S Juneau St,Seattle,WA,98118-2600 ,206.402.3964,"admin@makkahislamicschool.org
aishah.bomani@makkahislamicschool.org",makkahislamicschool.org,K-8,NP,,,,,,,
Grant,Wilson Creek,Marlin Hutterite School,8494,Jilleen Rowley (Hotchkiss),"1700 S Beaumont
(Mail: 21344 Rd 18 NE
Marlin 98832)",Moses Lake,WA,98837-5313,509.345.2390 x 233,jdlm60@hotmail.com,,K-12,NP,,,,,,,
Mason,Shelton,Mason County Christian School,8937,Dr. Carol Holum,470 E Eagle Ridge Dr,Shelton,WA,98584-7897,360.426.7616,carol.holum@masoncountychristianschool.org,masoncountychristianschool.org,P-9,NP,,,,,,,
King,Seattle,Matheia School,8165,Allison Soules,2205 NW 67th St,Seattle,WA,98117-5737,206.283.1828,allison@matheia.org,www.matheia.org,K-5,NP,,,,,,,
Kittitas,Cle Elum-Roslyn,Mayflower Christian School,802U,"Jerry Ihrke
Angela Standley","300 N 2nd
(Mail: PO Box 741
Cle Elum WA 98922-0741)",Roslyn,WA,98941,509.674.5022,school.admin@mayflowerchristianschool.org,www.mayflowerchristianschool.org,P-8,NP,,,,,,,
Clark,Battle Ground,Meadowglade SDA School,8013,Ricardo Peinado,18717 NE 109th Ave,Battle Ground,WA,98604-6115,360.687.5121,rpeinado@mgaes.org,www.mgaes.org,K-8,NP,SDA,,,,,,
King,Bellevue,Medina Academy,8612,Robert Mond,16242 Northrup Way                   ,Bellevue,WA,98008-2545,425.497.8848,principal@medinaacademy.org,www.medinaacademy.org,P-8,NP,,,,,,,
King,Seattle,Meridian School,8404,Meghan Kimpton,4629 Sunnyside Ave N  Suite 242,Seattle,WA,98103-6955,206.632.7154,mkimpton@meridianschool.edu,www.meridianschool.edu,K-5,NP,NAIS,,Yes,Yes,,,
Okanogan,Methow Valley,Methow Valley Community School  ,8362,Allison Ciancibelli,201 S Methow Valley HWY,Twisp,WA,98856,509.996.4447,methowvalleycommunityschool@gmail.com,www.mvcommunityschool.org,1-6,NP,,,,,,,
Pacfic,South Bend,Misson Creek Christian Education Center,804D,Mary Nell Ellingsen,"51 Harold Young Rd
(Mail: PO Box 1066
South Bend WA 98586-1066)",South Bend,WA,98586,360.875.6052,mnellingsen@yahoo.com,mcoutreach.org,6-12,NP,,,,,,,
King,Seattle,MMSC Day School,800S,Chaya Elishevitz,8420 Dayton Ave N,Seattle,WA,98103-4249,206.523.9766,celishevitz@mmscdayschool.org,www.mmscdayschool.org,K-8,NP,,,,,,,
Asotin,Clarkston,Monarch Academy,802V,Jenifer White,"1465 Poplar Street
(Mail: 1102 Chestnut St.
Clarkston WA 99403-2527)",Clarkston,WA,99403-2347,509.552.1315,jenilwhite@gmail.com ,monarchacademyprivateschool.com,P-6,NP,,,,,,,
Snohomish,Monroe,Monroe Christian School,8171,Elaine Obbink,1009 W Main St,Monroe,WA,98272-2017,360.794.8200,elaine.obbink@monroechristian.org,www.monroechristian.org,P-8,NP,CSI,,,,,,
Snohomish,Monroe,Monroe Montessori School,8995,Thea Heineman,"733 Village Way                   
",Monroe,WA,98272-2171,360.794.4622,front-office@monroemontessori.com,www.monroemontessori.com,P-6,P,,,,,,,
King,Federal Way,Montessori Academy at Spring Valley (formerly Spring Valley Montessori  2015),8078,Gulsevin Kayihan,36605 Pacific Hwy S,Federal Way,WA,98003-7499,253.874.0563,kayihang@springvalley.org,www.springvalley.org,P-8,NP,,,,,,,
Whatcom,Bellingham,Montessori at Samish Woods (formerly Samish Montessori Sch),800T,Jessica Tupper,1027 Samish Way,Bellingham,WA,98229-3103,360.650.9465,jessica@samishwoods.org,samishwoods.org,P-6,NP,,,,,,,
King,Lake Washington,Montessori Children's House,1432,Jennifer Wheelhouse,5003 218th Ave NE,Redmond,WA,98053-2429,425.868.7805,jennifer@mchkids.com,www.mchkids.com,P-6,P,AMS,,,,,,
Kitsap,Bainbridge Island,Montessori Country School,801K,Meghan Kane Skotheim,10994 Arrow Point Dr,Bainbridge Island,WA,98110-1410,206.842.4966,"meghan@montessoricountryschool.org
countryschool@hotmail.com",www.montessoricountryschool.org,P-6,NP,,,,,,,
Yakima,Yakima,Montessori School of Yakima,1468,Lorna Wigen,511 N 44th Ave,Yakima,WA,98908-2608,509.966.0680,montessoriyakima@gmail.com,msofy.org,P-6,NP,,,,,,,
Kitsap,Central Kitsap,Montessori Schoolhouse Inc dba Bilingual Montessori School (formerly Discovery Depot Montessori Schoolhouse  2017),802B,Constance Falconer,"5550 Tracyton Blvd
(Mail: 7333 Tracyton Blvd
Bremerton WA 98311-9036)",Bremerton,WA,98311-2386,360.337.1400,conniefalconer@hotmail.com,www.discoverydepotmontessori.com,K-3,P,,,,,,,
Snohomish,Everett,Montessori Schools of Snohomish Co.,8892,Kathleen Gunnell,1804 Puget Dr,Everett,WA,98203-6600,425.355.1311,mymssc@aol.com,www.mymssc.com,P-12,NP,,,,,,,
King,Seattle,Morningside Academy,8674,Dr. Kent Johnson,901 Lenora St,Seattle,WA,98121-2714,206.709.9500,kent@morningsideacademy.org,www.morningsideacademy.org,1-9,NP,,,,,,,
Grant,Moses Lake,Moses Lake Christian Academy,8356,Stephanie Voigt,1475 Nelson Road NE,Moses Lake,WA,98837-1400,509.765.9704,svoigt@mlca.us,www.MLCA.us,P-12,NP,,,,,,,
Skagit,Mount Vernon,Mount Vernon Christian School,8154,Jeff Droog,820 W Blackburn Rd,Mount Vernon,WA,98273-9596,360.424.9157,jdroog@mountvernonchristian.org,www.mountvernonchristian.org,P-12,NP,CSI,,,,,,
Clallam,Sequim,Mountain View Christian School,8315,Michelle Noonan,255 Medsker Rd,Sequim,WA,98382-8516,360.683.6170,DumaMRB@hotmail.com ,www.mountainviewschristianschool.org,1-8,NP,SDA,,,,,,
Snohomish,Mukilteo,Mukilteo Academy,1411,Victoria Michael,12978 Beverly Park Rd,Mukilteo,WA,98275-5845,425.347.3665 ext 2,VictoriaMichael@MukilteoAcademy.com,www.mukilteoAcademy.com,P-1,P,NWAC,,,,,,
Thurston,Olympia,Nature Nurtures Farm School (formerly The Children's Inn Academy--2016),8369,Julie Peters,1939 Karen Frazier Rd SE,Olympia,WA,98501-3244,"360.709.9769
360.878.7730"," info@naturenurturesfarm.org
tmcvacationrentals@gmail.com",www.naturenurturesfarm.org,P-6,NP,,,,,,,
King,Renton,New Horizon School,8110,Marla Veliz,1111 S Carr Rd,Renton,WA,98055-5839,425.226.3717,mveliz@new-horizon-school.org,www.new-horizon-school.org,4-12,NP,NWAC,,Yes,,,,
Grant,Ephrata,New Life Christian School,8605,Nathan Dowd,911 E Division,Ephrata,WA,98823-1965,509.754.5558,administrator@nlcs.us,www.NewLifeEphrata.com,P-8,NP,AESD,,,,,,
King,Bellevue,Newport Children's School,8986,Cynthia Chaney,12930 SE Newport Way,Bellevue,WA,98006-2078,425.641.0824,cynthiac@newportschool.com,www.newportschool.com,P-1,P,,,,,,,
Yakima,Naches Valley,Nile Christian School/Hope Academy,8596,Bruce Gillespie,370 Flying H Loop,Naches,WA,98937-9440,509.658.2990,brucegillespie@flyingh.org,www.flyingh.org,7-12,NP,NWAC,Yes,,,,,
Grays Harbor,North Beach,North Coast Montessori School,804N,Helen Gilbert,"21 Seabrook Ave  Suite 4
(Mail: PO Box 175
Pacific Beach 98571-0175)",Pacific Beach,WA,98571,360.276.5077,helengilbert@learningenrichmentcenter.org,northcoastmontessori.com,K-8,P,,,,,,,
Okanogan,Oroville,North Country Christian School,8918,Margo Thompson,737 Mary Ann Creek Rd,Oroville,WA,98844-9643,509.485.2011,margolthompson@yahoo.com,nohttp://christianschoolcampg.weebly.com,P-12,NP,,,Yes,Yes,,,
King,Seattle,North Seattle French School,802W,Elodie Le Nezet,12351 8th Ave NE,Seattle,WA,98125-4805,206.403.0781,"northseattlefrenchschool@gmail.com
elodie.lenezet@northseattlefrenchschool.com",www.northseattlefrenchschool.com,K-4,NP,,,,,,,
Spokane,Mead,North Wall Elementary,8725,Leslie Watkins,9408 N Wall St,Spokane,WA,99218-2245,509.466.2695,lesliewatkins@northwallschools.com,www.northwallschools.com,P-6,P,AESD,,Yes,Yes,,,
Island,Oak Harbor,North Whidbey Christian High,1478,Douglas Fakkema,"675 E Whidbey Ave                
(Mail PO Box 2471                 
Oak Harbor 98277-6471)",Oak Harbor,WA,98277-5901,360.675.5352,dougfakkema@gmail.com,www.nwchs.org,7-12,NP,,,,,,,
Island,Oak Harbor,North Whidbey Kids' Academy (formerly Doodlebugs Acad  2013),801I,Tina Smith,297 NE Harvest Dr.,Oak Harbor,WA,98277-5909,"360.675.4911
360.929.4705",northwhidbeykidsacademy1@comcast.net,http://home.comcast.net/~doodlebugsacademy/index.html,P-2,P,,,,,,,
King,Lake Washington,Northern Lights Montessori School–Willows Campus (formerly Northern Lights Montessori School--2nd Location [2014]),803P,Florence Plantilla,"14615 NE 91st St
(Mail: 8460 NE 160th Ave
Redmond 98052-3855)",Redmond,WA,98052-3553,425.647.3031,florenceplantilla@yahoo.com,www.norlightsmontessori.org,P-2,P,AMS,,,,,,
King,Lake Washington,Northlake Academy,804E,Susan Werner ,12931 NE 126th Place,Kirkland,WA,98034-7715,425.889.4444,northlakepreschool@gmail.com,northlakeacademy.org,P-5,P,,,,,,,
Snohomish,Mukilteo,Northshore Christian Academy,8111,Holly Leach,5700 23rd Dr W,Everett,WA,98203-1570,425.407.1119,hleach@northshorechristian.org,northshorechristianschools.org,P-8,NP,ACSI,,,,,,
Spokane,Spokane,Northwest Achieve Schools,802X,Christopher Eirls,116 W Indiana Ave,Spokane,WA,99205-4827,509.327.3311,ceirls@msn.com,www.ascendtotheheights.com,P-12,NP,,,Yes,Yes,,,
Thurston,North Thurston,Northwest Christian High School,8174,Dr. Terry Ketchum,4710 Park Center Ave NE,Lacey,WA,98516-5587,360.491.2966,tketchum.nchs@gmail.com,www.nchs-olympia.org,9-12,NP,,,,,,,
Spokane,Mead,Northwest Christian School,8182,Dr. Jack Hancock,5028 E Bernhill Rd,Colbert,WA,99005-9557,509.292.6700,jhancock@nwcs.org,www.nwcs.org,P-8,NP,,,,,,,
Spokane,Mead,Northwest Christian School,8270,Dr. Jack Hancock,5104 E Bernhill Rd,Colbert,WA,99005-9005,509.238.4005,jhancock@nwcs.org,www.nwcs.org,9-12,NP,NWAC,,,,,,
Pierce,Puyallup,Northwest Christian School (formerly Nelson Crane Christian School) (2009),8129,Carisa Carr,904 Shaw Rd,Puyallup,WA,98372-5211,253.845.5722,ccarr@nwchristianschool.org,www.nwchristianschool.org,P-8,NP,SDA,,,,,,
Yakima,Granger,Northwest Education Academy,805K,Allisen Yolanda Paez,121 Sunnyside Ave,Granger,WA,98932-9348,360.870.7028,officenwacademy@gmail.com,,P-12,,,,,,,,
King,Northshore,Northwest Liberty School ,1484,Robert Hagin,13120 NE 177th Pl  A-104,Woodinville,WA,98072-5725,425.420.1236,Bob.Hagin@NWLS.us,NorthwestLibertySchool.org,6-12,P,NWAC,,,,,,
King,Seattle,Northwest Montessori,8894,Jan Thorslund,"4910 Phinney Ave N                   
(Mail: 7400 25th Ave NE           
Seattle 98115-5814)",Seattle,WA,98103-6347,206.524.4244,jthorslund@northwestmontessori.org,www.northwestmontessori.org,P-6,NP,AMS,,,,,,
King,Seattle,Northwest School,8573,Michael McGill,1415 Summit Ave,Seattle,WA,98122-3619,206.682.7309,mike.mcgill@northwestschool.org,www.northwestschool.org,6-12,NP,NAIS,Yes,,,,,
King,Shoreline,Northwest School for Deaf and Hard-of-Hearing Children dba Northwest School For Hearing Impaired Children (formerly Northwest School for Hearing Impaired Children  2014),8684,Lynessa Cronn,"15303 Westminster Way N          
(Mail: PO Box 33666                  
Shoreline 98133-0666)",Shoreline,WA,98133-6126,206.364.4605,l.cronn@northwestschool.com ,www.northwestschool.com,P-8,NP,,,,,,,
King,Mercer Island,Northwest Yeshiva High School,8569,Malka Popper,5017 90th Ave SE,Mercer Island,WA,98040-4709,206.232.5272,Mpopper@NYHS.org,www.nyhs.com,9-12,NP,AESD,,,,,,
Thurston,Olympia,Nova School,8948,Barbara Mitchell Hutton,2020 22nd Ave SE,Olympia,WA,98501-3102,360.491.7097,BHutton@novaschool.org,novaschool.org,6-8,NP,NAIS,,,Yes,,,
Walla Walla,Prescott,Nueva Esperanza Leadership Academy (formerly First Fruits Academy 2016),804Q,Eric Sobotta,1111 Fish Hook Park Dr,Prescott,WA,99348-9618,509.749.2138,erics@firstfruits.com,nelaeducation.org,K-9,NP,,,,,,,
Island,Oak Harbor,Oak Harbor Christian School,8026,Sherry Fakkema,675 E Whidbey Ave,Oak Harbor,WA,98277-2596,360.675.2831,mrsfakkema@oakharborchristian.org,oakharborchristian.org,P-6,NP,,,,,,,
Yakima,West Valley 208,Oakridge Ranch - Montessori Farm School,1413,Judy Lefors,"11002 Orchard Ave 
(Mail: 6403 Summitview Ave
Yakima 98908-1362)",Yakima,WA,98908-9102,509.966.1080,oakridgeyakima@aol.com,oakridgeyakima@aol.com,K-9,NP,AESD,,,,,,
King,Seattle,O'Dea High School,8050,James Walker,802 Terry Ave,Seattle,WA,98104-1294,206.622.6596,jdwalker@odea.org,www.odea.org,9-12,NP,NWAC,,,,,,
Thurston,Olympia,Olympia Christian School,8209,Sharon Schwarts,1215 Ethel St NW,Olympia,WA,98502-4463,360.352.1831, sjcrooms@aol.com,www.ocssda.org,K-8,NP,SDA,,,,,,
Thurston,Olympia,Olympia Community School,8317,Stefanie Hardy,"114 20th Ave SE
(Mail: PO Box 12436
 Olympia 98508-2436)",Olympia,WA,98501-3666,360.866.8047,president@olyedu.org,www.olympiacommunityschool.org,K-5,NP,,,,,,,
Thurston,Tumwater,Olympia Waldorf School,8855,Dominic Kehoe,"8126 Normandy St SE
(Mail: PO Box 130
East Olympia 98540-0638)",Olympia,WA,98501-9623,360.493.0906,dkehoe@olympiawaldorf.org,www.olympiawaldorf.org,P-8,NP,AWSNA,,,,,,
Clallam,Port Angeles,Olympic Christian School,8302,Mitch Johnson,43 O'Brien Rd,Port Angeles,WA,98362-9225,360.457.4640,mjohnson@olympicchristian.org,www.olympicchristian.org,P-8,NP,,,,,,,
Okanogan,Omak,Omak Adventist Christian School,8985,Jennifer J. Hoffpauir,"425 W 2nd Ave                    
(Mail: PO Box 3294                 
Omak  98841-3294)",Omak,WA,98841,509.826.5341,omakadventistchristianschool@yahoo.com,omakadventistschool.org,1-8,NP,,,,,,,
King,Issaquah,Open Window School,8830,Jeff Stroebel,6128 168th Place SE,Bellevue,WA,98006-5679,425.747.2911,jeffs@ows.org,www.openwindowschool.org,K-8,NP,NAIS,,,Yes,,,
San Juan,Orcas Island,Orcas Christian School,8557,Thomas Roosma,"107 Enchanted Forest Rd
(Mail: PO Box 669
Eastsound WA 98245-0669)",Eastsound,WA,98245-8905,360.376.6683,"roosmat@hotmail.com
roosmat@gmail.com",www.oics.org,K-12,NP,SDA,,,,,,
King,Seattle,Our Lady of Fatima School,8051,Nicholas Ford,3301 W Dravus St,Seattle,WA,98199-2624,206.283.7031,nford@olfatima.org,www.school.olfatima.org,P-8,NP,WCEA,,,,,,
King,Seattle,Our Lady of Guadalupe School,8052,Anton Kramer,3401 SW Myrtle St,Seattle,WA,98126-3399,206.935.0651,akramer@guadalupe-school.org,guadalupe-school.org,P-8,NP,WCEA,,,,,,
Clark,Vancouver,Our Lady of Lourdes School,8009,Holly Rogers,4701 NW Franklin St,Vancouver,WA,98663-1798,360.696.2301,"principal@lourdesvan.org
hrogers@lourdesvan.org",www.lourdesvan.org,P-8,NP,WCEA,,,,,,
King,Seattle,Our Lady Of The Lake School,8054,Vince McGovern,3520 NE 89th St,Seattle,WA,98115-3648,206.525.9980,vmcgovern@ollseattle.org,www.ollseattle.org,P-8,NP,WCEA,,,,,,
Kitsap,Bremerton,Our Lady Star of the Sea School,8115,Jeannette Wolfe,1516 5th St,Bremerton,WA,98337-1216,360.373.5162,jwolfe@starofthesea.net,school.starofthesea.net,P-8,NP,WCEA,,,,,,
King,Federal Way,Overcomer Academy (formerly Stepping Stones Christian Sch)  (2010),1474,Bonnie Carpenter,33415 Military Rd S,Auburn ,WA,98001-9603,253.886.5710,"bonniec@overcomercc.org
medgar.wells@overcomeracademy.com",www.overcomercc.org,P-7,NP,,,,,,,
King,Lake Washington,Overlake School,8109,Matthew Horvat,20301 NE 108th St,Redmond,WA,98053-7499,425.868.1000,mhorvat@overlake.org,www.overlake.org,5-12,NP,NAIS,,,,,,
Clark,Camas,Pacific Crest Academy,8394,Tamar Parker,324 NE Oak Street ,Camas,WA,98607-1439,360.834.9913,parker@pacificcrestacademy.org,www.pacificcrestacademy.org,P-8,NP,WCEA,,,,,,
King,Seattle,Pacific Crest Schools,8929,Dorothea Knapp Guy,600 NW Bright St,Seattle,WA,98107-4451,206.789.7889,director@pacificcrest.org,www.pacificcrest.org,P-8,NP,NWAC,,,,,,
King,Federal Way,Pacific International School,805L,Jung No Norton,4244 S 280th St,Auburn,WA,98001-1168,360.941.5800,jungnonorton931@gmail.com,,K-3,P,,,,,,,
King,Issaquah,Pacific Learning Academy,801V,Kirsten O'Malley,2908 228th Ave SE,Sammamish,WA,98075-9516,425.562.3545,Kirsten@PacificLearningAcademy.com,www.pacificlearningacademy.com/,6-12,P,NWAC,,,,,,
Snohomish,Shoreline,Pacific Learning Center NW,8419,Daniel D. Hanson,14550 Westminster Way,Shoreline,WA,98133-6431,425.672.6805,info@plcnw.org,www.plcnw.org,K-12,NP,NWAC,,Yes,,,,
Spokane,Spokane,Palisades Christian Academy (formerly Spokane Jr Acad  2009),8186,Dan Wister,1115 N Governmental Way,Spokane,WA,99224-5247,509.325.1985,principal@pcasda.org,http://www.pcasda.org,P-10,NP,SDA,,,,,,
Thurston,North Thurston,Paramount Christian Academy,803H,Amy Goodwin,3816 College St SE,Lacey,WA,98503-3534,360.878.8915,amy@paramountchristian.org,http://paramountchristianacademy.org,P-5,NP,NWAC,,,,,,
Pierce,Franklin Pierce,Parkland Lutheran School,8150,Brent Sorn,120 123rd St S,Tacoma,WA,98444-5060,253.537.1901,bsorn@parklandlutheran.org ,www.parklandlutheran.org,K-8,NP,,,,,,,
Kitsap,Central Kitsap,Peace Lutheran School,8613,Sheri Juszczak,1234 NE Riddell Rd,Bremerton,WA,98310-3668,360.373.2116,sjuszczak@peacebremerton.org,www.peacelutherannw.org,P-8,NP,NLSC,,,,,,
King,Seattle,Perkins School,8251,Barry Wright,9005 Roosevelt Way NE,Seattle,WA,98115-3030,206.526.8217,bwright@theperkinsschool.org,www.perkinsschool.com,K-5,NP,NAIS,,,,,,
Whatcom,Ferndale,Pioneer Meadows Montessori School ,1447,Lee Smith,2377 Douglas Rd,Ferndale,WA,98248-9049,360.778.3681,lee.smith@pmmontessori.org,www.pmmontessori.org,P-6,NP,,,,,,,
Spokane,Central Valley,Pioneer School,8724,Betty Burley-Wolf,618 N Sullivan Rd,Veradale,WA,99037-8528,509.922.7818,betty@pioneerschool.com,www.pioneerschool.com,K-5,NP,,,,Yes,,,
Thurston,North Thurston,Pope John Paul II High School,800Z,Ronald Edwards,5608 Pacific Ave SE                     ,Lacey,WA,98503-1258,360.438.7600,redwards@popejp2hseagles.org,www.popejp2hs.org,9-12,NP,WCEA,,,,,,
Kitsap,North Kitsap,Poulsbo SDA School,8874,Sandy Hawkins,1700 Lincoln Rd NE  Suite 1,Poulsbo,WA,98370-8549,360.779.6290,sandyjhawkins@yahoo.com ,paslearn.org,1-8,NP,SDA,,,,,,
King,Mercer Island,Privett Academy,1436,Carol C. Meyer,"9311 SE 36th St                               
(Mail: PO Box 42                      
Mercer Island  98040-0042)",Mercer Island,WA,98040-3740,206.232.0059,cmeyer150@comcast.net,www.privettacademy.org,6-12,NP,NWAC,,,,,,
Whatcom,Ferndale,Providence Christian School Northwest (formerly Providence Christian School) (2009),8493,Kathy Vander Pol,"5942 Portal Way                               
(Mail: PO Box 180                                 
Ferndale  98248-0180)",Ferndale,WA,98248-9361,360.318.1347 ,pcs.nw@live.com,ferndalechristianschool.com,K-12,NP,,,,,,,
Snohomish,Lake Washington,Providence Classical Christian School,1449,Ryan Evans,11725 NE 118th St,Kirkland,WA,98034-7114,425.774.6622,ryanevans@pccs.org,www.pccs.org,P-12,NP,,,,,,,
King,Lake Washington,Puget Sound Adventist Academy,8259,Ron Jacaban,5320 108th Ave NE,Kirkland,WA,98033-7517,425.822.7554,rjacaban@psaa.org,www.psaa.org,9-12,NP,SDA,,,,,,
King,Seattle,Puget Sound Community School,8652,Andrew Smallman,660 S Dearborn St,Seattle,WA,98134-1328,206.324.4350,"pscs@pscs.org
melinda@pscs.org",www.pscs.org,6-12,NP,,,,,,,
Pierce,Tacoma,Puget Sound Lutheran Schools — Concordia Lutheran Schools (formerly Concordian Lutheran School 2017),8134,Sherrie Gibelyou,202 E 56th St,Tacoma,WA,98404-1298,253.475.9513,sherrie.gibelyou@cls-mrlhs.org,www.concordiatacoma.com,P-8,NP,NLSA,,Yes,Yes,,,
Pierce,Franklin Pierce,Puget Sound Lutheran Schools— Mt. Rainier Lutheran High School  (formerly Mt. Rainier Lutheran High School 2017),8956,Sherrie Gibelyou,12108 Pacific Ave S,Tacoma,WA,98444-5125,253.284.4433,sherrie.gibelyou@cls-mrlhs.org,www.mrlh.org,9-12,NP,NLSA,,,,,,
Whitman,Pullman,Pullman Christian School,8397,Sherri Goetze,345 SW Kimball,Pullman,WA,99163-2146,509.332.3545,sherrig@PullmanChristianSchool.org,www.pullmanchristianschool.org,K-12,NP,,,,,,,
Clallam,Port Angeles,Queen of Angels School,8006,Ann Austin,1007 S Oak St,Port Angeles,WA,98362-7742,360.457.6903,austin@qofaschool.org,www.qofaschool.org,P-8,NP,WCEA,,,,,,
Grant,Quincy,Quincy Valley School,1472,Sara Tuttle,1804 13th Ave SW,Quincy,WA,98848-1930,509.797.5301,stuttle@quincyvalleyschool.org,www.quincyvalleyschool.org,P-8,NP,AESD,,,,,,
King,Kent,Rainier Christian High School,8848,Justin Evans,26201 180th Ave SE,Covington,WA,98042-4917,253.735.1413,justin.evans@rainierchristian.org,www.rainiercsd.com,9-12,NP,,,,,,,
King,Auburn,Rainier Christian Middle School,8242,Don Garnand,20 49th St NE,Auburn,WA,98002-1201,253.639.7715,don.garnand@rainierchristian.org,www.rainiercsd.org,7-8,NP,,,,,,,
King,Auburn,Rainier Christian Schools-Kent View Elementary,8622,Don Garnand,20 49th St NE,Auburn,WA,98002-1201,253.852.5145,don.garnand@rainierchristian.org,http://www.rainiercsd.org/kvces/index.htm,K-6,NP,,,,,,,
King,Kent,Rainier Christian Schools-Maple Valley Elementary,8099,Weldo D. Melvin,"16700 174th Ave SE                  
(Mail: PO Box 58129         
Renton 98058-1129)",Renton,WA,98058-9546,425.226.4640,weldo.melvin@rainierchristian.org,www.rainiercsd.org,P-6,NP,,,,,,,
King,Renton,Renton Christian School,8540,Dr. Erik Konsmo,15717 152nd Ave SE,Renton,WA,98058-6330,425.226.0820,erik.konsmo@rentonchristian.org,www.rentonchristian.org,P-12,NP,ACSI,,,,,,
King,Renton,Renton Preparatory Christian School,804F,"Dr. David-Paul Zimmerman
Dr. Michelle Zimmerman",200 Mill Ave S  Suite 100,Renton,WA,98057-2175,206.723.5526,"drzimmerman@agcschool.org
m.zimmerman@agcschool.org",www.rentonprep.org,3-12,NP,,,,,,,
Snohomish,Sultan,RESTART Leadership Academy,804U,Cosette Rae,30001 138th Pl SE,Monroe,WA,98272-9037,800.682.6934,cosette.rae@restartlife.com,www.restartlife.com,8-12,P,,,,,,,
Spokane,Spokane,Riverday School (formerly River Day School 2013),801W,Colleen Curran,1627 E Trent,Spokane,WA,99202-2940,509.326.6595,"cmcrw@aol.com
office@riverdayschool.org",www.riverdayschool.org,K-6,NP,,,,,,,
Yakima,East Valley 90,Riverside Christian School,8316,Richard Van Beek,721 Keys Rd,Yakima,WA,98901-9560,509.965.2602,vanbeekr@riversidechristian.net,www.riversidechristianschool.com,P-12,NP,ACSI,,Yes,,,,
Clark,Camas,Riverside SDA Christian School,8973,Heidi Kruger,"463 N Shepherd Rd                     
(Mail: PO Box 367              
Washougal 98671-0367)",Washougal,WA,98671-8318      ,360.835.5600,riversidesch@gmail.com,www.riversidesch.com,P-8,NP,SDA,,,,,,
Stevens,Colville,Riverwood Community School,803Q,Monica Voltz,146-B Buena Vista Dr,Colville,WA,99114-9603,509.675.4108,rcsoffice1@gmail.com,riverwoodschool.org,K-8,NP,,,,,,,
Lincoln,Odessa,Rock Creek Hutterite,8395,Phillip Walter,2194 N Schoonover Rd,Odessa,WA,99159-9729,509.988.0600,phil.0600@gmail.com,,K-12,NP,,,,,,,
Walla Walla,College Place,Rogers Adventist School,8213,Holly Bryant,200 SW Academy Way,College Place,WA,99324-1275,509.529.1850,principal@rschool.org,www.rschool.org,K-8,P,SDA,,,,,,
King,Seattle,Root Academy,804V,Heather McKenzie Graham,2332 N 116th St,Seattle,WA,98133-8514,425.260.9167,mackenzie@rootacademyseattle.com,rootacademyseattle.com,P-8,P,,,Yes,Yes,,,
King,Bellevue,Sacred Heart School,8093,David Burroughs,9450 NE 14th St,Clyde Hill,WA,98004-3497,425.451.1773,dburroughs@sacredheart.org,www.sacredheart.org,P-8,NP,WCEA,,,,,,
Adams,Othello,Saddle Mountain School,1498,Phyllis Magden,2451 W Bench Rd,Othello,WA,99344-8901,509.760.3321,phyllismagden@yahoo.com,saddlemountainschool.com,4-12,P,,,,,,,
Benton,Richland,Sagebrush Elementary School,802Y,Samantha May,507 Wright Ave,Richland,WA,99352-3619,509.713.7322,samantha@sagebrushelementary.org,www.sagebrushelementary.org,1-6,NP,,,,,,,
Spokane,Mead,Saint George's School,8199,James Tender,2929 W Waikiki Rd,Spokane,WA,99208-9209,509.466.1636,jamie.tender@sgs.org,www.sgs.org,K-12,NP,NAIS,,,,,,
Spokane,Spokane,Salish School of Spokane,803U,LeRae Wiley,"4125 N Maple St
(Mail: PO Box 10271  
Spokane 99209-1271)",Spokane,WA,99205-1353,509.325.2018,larae@salishschoolofspokane.org,www.salishschoolofspokane.org,K-6,NP,,,,,,,
Skagit,Anacortes,Salish Sea Deaf School,804G,Maria Christianson,715 Seafarers Way  Suite 102,Anacortes,WA,98221-2257,360.419.6946,maria@salishseadeafschool.org,www.salishseadeafschool.org,K-12,NP,,,Yes,,,,
San Juan,Orcas Island,Salmonberry School,8636,Paul Freedman,"867 N Beach Rd                          
(Mail: PO Box 1197               
Eastsound 98245-1197)",Eastsound,WA,98245-9711,360.376.6310,head@salmonberryschool.org,salmonberryschool.org,K-6,NP,NWAIS,,,,,,
Pierce,Puyallup,Salvation Christian Academy (formerly Slavic Christian Academy--Edgewood 2014),1493,Vadim Hetman,10622 8th St E,Edgewood,WA,98372-1133,253.952.7163,"vhetman@ncek12.com
salvationacademy@ncek12.com",www.ncek12.com,K-12,NP,NWAC,,,,,,
Pierce,Tacoma,Seabury School,8907,Sandra Wollum,1801 NE 53rd St,Tacoma,WA,98422-1916,253.952.3111,sandiw@seabury.org,www.seabury.org,P-5,NP,NWAC,,,Yes,,,
Pierce,Tacoma,Seabury School--Middle School Campus,800M,Sandra Wollum,"925 Court C 
(Mail:  1801 NE 53rd St                          
 Tacoma 98422-1916)",Tacoma,WA,98402-3603,253.604.0042,sandiw@seabury.org,www.seabury.org,6-8,NP,NAIS,,,,,,
King,Seattle,Seattle Academy of Arts/Sciences,8761,Joseph Puggelli,1201 E Union St,Seattle,WA,98122-3925,206.323.6600,jpuggelli@seattleacademy.org,www.seattleacademy.org,6-12,NP,NAIS,,,,,,
King,Seattle,Seattle Amistad School,802H,Farin Houk,1625 19th Ave,Seattle,WA,98122-2848,206.330.6373,farin.houk@seattleamistadschool.org,seattleamistadschool.org,P-5,NP,,,,,,,
King,Seattle,Seattle Area German American School,801A,Elke Robshaw,11010 Greenwood Ave N,Seattle,WA,98133-8739,206.442.2023,elke.robshaw@sagaschool.org,www.sagaschool.org,P-5,NP,,,,,,,
King,Highline,Seattle Christian School,8084,Laird Leavitt,18301 Military Rd S,Seattle,WA,98188-4684,"206.246.8241
206.438.5404",lleavitt@seattlechristian.org,www.seattlechristian.org,K-12,NP,ACSI,,,,,,
King,Seattle,Seattle Classical Christian School,803R,Luke Davis,1013 8th Ave,Seattle,WA,98104-1222,206.588.6403,ldavis@seattleclassicalchristianschool.org,www.seattleclassicalchristianschool.org,P-6,NP,,,,,,,
King,Seattle,Seattle Country Day School,8085,Michael G. Murphy,2619 4th Ave N,Seattle,WA,98109-1903,206.284.6220,michaelmurphy@seattlecountryday.org,www.seattlecountryday.org,K-8,NP,NAIS,,,Yes,,,
King,Seattle,Seattle Girls School,8500,Brenda Leaks,2706 S Jackson St ,Seattle,WA,98144-2442,206.709.2228,bleaks@seattlegirlsschool.org,www.seattlegirlsschool.org,5-8,NP,NAIS,,,,,,
King,Seattle,Seattle Hebrew Academy,8057,Rivy Poupko Kletenik,1617 Interlaken Dr E,Seattle,WA,98112-3499,206.323.5750,lminkin@sha613.org,www.seattlehebrewacademy.org,P-8,NP,NAIS,,Yes,Yes,,,
King,Seattle,Seattle Jewish Community School,8017,Heidi Stangvik,12351 8th Ave NE,Seattle,WA,98125-4805,206.522.5212,hstangvik@sjcs.net,www.sjcs.net,K-5,NP,NWAIS,,,,,,
King,Seattle,Seattle Lutheran High School,8455,Dave Meyer,4100 SW Genesee St,Seattle,WA,98116-4216,206.937.7722,"dmeyer@seattlelutheran.org
mhenderson@seattlelutheran.org ",www.seattlelutheran.org,9-12,NP,NLSA,,,,,,
King ,Highline,Seattle Mini Medical School,804W,Tan Lam,"2400 S 240th St
(Mail 14616 26th Ln S
SeaTac WA 98168-4200)",Des Moines,WA,98196-2714,206.319.6063,tanlam@minimedicalschool.org,www.minimedicalschool.org,6-12,NP,,,,,,,
King,Seattle,Seattle Nativity School,802Z,Edward Nelson,"2800 S Massachusetts St
(Mail: PO Box 20730
Seattle WA 98102-1730)",Seattle,WA,98144-3870,206.494.4708,"jmcdougall@seattlenativity.org
nelson@seattlenativity.org",www.seattlenativity.org,6-8,NP,,,,,,,
King,Seattle,Seattle Preparatory School (Formerly Seattle Prep/Matteo Ricci College [2014]),8059,Erin Luby,2400 11th Ave E,Seattle,WA,98102-4016,206.577.2105,eluby@seaprep.org,www.seaprep.org,9-12,NP,NWAC,,,,,,
King,Seattle,Seattle Urban Academy,8940,Sharon Okamoto,3800 S Othello St,Seattle,WA,98118-3562,206.723.0333,sokamoto@sua.org,www.sua.org,9-12,NP,NWAC,,,,,,
King,Seattle,Seattle Waldorf School,8628,Tracy Bennett,2728 NE 100th St,Seattle,WA,98125-7712,206.524.5320,tracy.bennett@seattlewaldorf.org,www.seattlewaldorf.org,P-12,NP,AWSNA,,,,,,
King,Seattle,Seattle Waldorf High School,Satelitte of SWS,Tracy Bennett,7400 Sandpoint Way,Seattle,WA,98115-8186,,tracy.bennett@seattlewaldorf.org,www.seattlewaldorf.org,9-12,,AWSNA,,,,,,
Clark,Battle Ground,Seton Catholic College Preparatory High School,800N,Ed Little,9000 NE 64th Ave,Vancouver,WA,98665-8212,360.258.1932,elittle@setonhigh.org,www.setonhigh.org,9-12,NP,WCEA,,,,,,
Mason,Shelton,Shelton Valley Christian School,8123,Melissa Hammond,"201 W Shelton Valley Rd 
(Mail: PO Box 773
Shelton 98584-0773)",Shelton,WA,98584-8722,360.426.4198,"MelissaRoseHammond@yahoo.com
svcsprincipal@gmail.com",www.sheltonvalleychristianschool.com,K-8,NP,SDA,,,,,,
King,Shoreline,Shoreline Christian School,8105,Timothy E. Visser,2400 NE 147th St,Seattle,WA,98155-7395,206.364.7777,admin@shorelinechristian.org,www.shorelinechristian.org,P-12,NP,CSI,,,,,,
King,Highline,Shorewood Christian School,8523,David Glass,10300 28th Ave SW,Seattle,WA,98146-1211,206.933.1056,david.glass@shorewoodchristian.org,shorewoodchristianschool.org,P-8,NP,,,,,,,
Kitsap,North Kitsap,Silverwood School,8816,Jon Torgerson,14000 Central Valley Rd NW,Poulsbo,WA,98370-8146,360.697.7526,Jon.Torgerson@silverwoodschool.org,www.silverwoodschool.org,K-6,NP,,,,,,,
Skagit,Burlington-Edison,Skagit Adventist Academy (formerly Skagit Adventist School 2011),8151,Aubrey Fautheree,530 N Section St             ,Burlington,WA,98223-1568,360.755.9261,afautheree@skagitadventist.com,www.skagitadventist.com,P-12,NP,SDA,,,,,,
Clark,Vancouver,Skinner Elementary Montessori School  (formerly Skinner Montessori School) (2009),8975,Peggy E Skinner (Nikki),5001 NE 66th Ave,Vancouver,WA,98661-2465,360.696.4862,nikki@skinnermontessori.com,www.skinnermontessori.com,P-6,NP,,,,,,,
Snohomish,Monroe,Sky Valley Adventist School,804H,Crysti Wallace,200 Academy Way,Monroe,WA,98272-2000,"206.852.7469
360.794.7655",crystal.v.wallace@gmail.com,www.skyvalleyschool.org,K-8,NP,SDA,,,,,,
Benton,Kennewick,Skylar Education Academy,805M,Allisen Yolanda Paez,7535 W Kennewick Ave  Suite G,Kennewick,WA,99336-7784,360.870.7028,officeskylar@gmail.com,,P-12,,,,,,,,
Clark,Evergreen 114,Slavic Christian Academy-Vancouver,801M,Andrey Dolbinin,"16807 NE 4th Plain Blvd                  
(Mail: 15407 NE 84th St                           
Vancouver 98682-9482)",Vancouver,WA,98682-5142,360.896.2602,slavicacademy@yahoo.com,www.slavicacademy.org,P-8,NP,NWAC,,,,,,
King,Northshore,Sno-King Academy ,1489,Dr Alice Westcott,"10816 NE 152nd                     
(Mail: 23104 - 80th Pl W                               
Edmonds 98026-8715)",Bothell ,WA,98011-4835,425.697.4021,snokingacad@aol.com,,3-12,P,,,,,,,
King,Issaquah,Snoqualmie Springs School,8304,Joe Drovetto,25237 SE Issaquah-Fall City Rd,Issaquah,WA,98029-7706,425.392.1196,snosprings@yahoo.com,www.snosprings.com,P-3,P,NWAC,,,Yes,,,
Snohomish,Edmonds,Solomon International School (formerly Solomon Christian Sch 2016),8983,Richard Lee,9506 7th Ave SE,Everett,WA,98208-3707,425.640.9000,rlee@solomonschool.com,www.solomonschool.com,7-12,P,,,,,,,
King,Belleuve,Solve for (X) School,804X,David Elliott,13500 Bel-Red Road  Suite 7A,Bellevue,WA,98005,206.250.8687,david@solveforxschool.org,www.solveforxschool.org,P-8,NP,,,,,,,
Clark,Vancouver,Sonshine Christian Elementary,802I,Rosemary Warner,11208 NE Hazel Dell Ave,Vancouver ,WA,98685-3957,360.574.5307,rosemarywarner@sonshinechristian.org,sonshinechristian.org,K-5,NP,NWAC,,,,,,
King,Federal Way,Sound Preparatory Academy (formerly Xceed Prep School 2016),805D,Glyn Jenkins,30168 25th Ave SW,Federal Way,WA,98023-2354,253.312.4014,headofschool@soundprep.org,www.xceedprep.org,6-12,NP,,,,,,,
King,Seattle,Sound View Education dba Sterling West Seattle Campus (2011),801B,Ryan Gracey,9205 3rd Ave SW,Seattle,WA,98106-3106,206.214.1011,ryangracey.home@gmail.com,sterlinged.org,3-12,NP,,,,,,,
Snohomish,Edmonds,Soundview School (formerly Soundview Private Schl 2008),8678,Chris Watson,6515 196th St SW,Lynnwood,WA,98036-5921,425.778.8572,cwatson@soundview.org,www.soundview.org,P-8,NP,,,,,,,
Pierce,Tacoma,South Sound Christian Schools-Tacoma Baptist Campus (New Hope Campus combined with Tacoma in 2015-16),8144,Brad McCain,2052 S 64th St,Tacoma,WA,98409-6899,253.475.7226,bmccain@tacomabaptist.org,www.southsoundchristian.org,P-12,NP,ACSI,,,,,,
Spokane,Spokane,Southside Christian School,8502,Karen Hoiland,401 E 30th Ave,Spokane,WA,99203-2590,509.838.8139,hoiland@southsidechristianschool.org,southsidechristianschool.org,P-8,NP,,,Yes,,,,
Clark,Vancouver,Southwest Washington Learning Center,804I,Debra Rinell,1020 NE 86th St,Vancouver,WA,98665-8915,360.573.7007,debra.rinell@swlearns.com,www.swlearns.com,P-1,P,,,,,,,
Clark,Camas,Spanish with Sarah,801X,Sarah Segall,2204 NE Birch St,Camas,WA,98607-1407,360.990.1585,sarah@segallgirls.com,wwww.spanishwithsarah.com,P-4,P,,,,,,,
King,Bellevue,Spectrum Academy (formerly Spectrum Learning Community  2008),8505,Uzma Butte,2576 152nd Ave NE,Redmond,WA,98052-0702,425.885.2345,ubutte@hotmail.com,www.SpectrumAcademy.us,P-1,P,,,,,,,
Spokane,Orchard Prairie,Spokane Christian Academy,8687,Cheryl Gade,8909 E Bigelow Gulch Rd,Spokane,WA,99217-9559,509.924.4888,cherylg@scs-spokane.org,www.scs-spokane.org,K-8,NP,,,,,,,
Spokane,Central Valley,Spokane Valley Adventist School,8202,Darla Shupe,1603 S Sullivan Rd,Spokane Valley,WA,99037-9012,509.926.0955,darla@pascosda.com,www.svas4him.com,K-8,NP,,,,,,,
Spokane,Spokane,Spokane Windsong School,802J,Breann Treffry,4225 W Fremont Rd,Spokane,WA,99224-5254,509.326.6638,admin@spokanewindsongschool.org,www.spokanewindsongschool.org,K-6,NP,,,,,,,
King,Seattle ,Spring Academy,802N,Robert Hauser,"9725 3rd Ave NE  Suite 125
(Mail: PO Box 615
Bellevue WA 98009)",Seattle,WA,98125-6111,206.363.3600,rob@springacademy.com,www.springacademy.com,6-12,P,NWAC,,Yes,Yes,,,
San Juan,San Juan,Spring Street International School,8116,Louis Prussack,505 Spring St,Friday Harbor,WA,98250-8057,360.378.6393,lprussack@springstreet.org,www.springstreet.org,5-12,NP,NWAC,,,,,,
King,Seattle,Spruce Street School,8704,Briel M Schmitz,914 Virginia St,Seattle,WA,98101-1426,206.621.9211,briels@sprucestreetschool.org,www.sprucestreetschool.org,K-5,NP,NAIS,,,,,,
Spokane,Spokane,St. Aloysius Catholic School,8188,Angela (Angie) Krauss,611 E Mission Ave,Spokane,WA,99202-1917,509.489.7825,akrauss@dioceseofspokane.org,www.stalsschool.org,P-8,NP,WCEA,,Yes,Yes,,,
King,Seattle,St. Alphonsus School,8061,Matt Eisenhauer,5816 15th Ave NW,Seattle,WA,98107-3096,206.782.4363,principal@stalseattle.org,www.stalseattle.org,P-8,NP,WCEA,,Yes,Yes,,,
King,Seattle,St. Anne School,8062,Mary Sherman,101 W Lee St,Seattle,WA,98119-3321,206.282.3538,msherman@stannesea.org,www.stannesea.org,P-8,NP,WCEA,,,,,,
King,Renton,St. Anthony School,8089,Michael Cantu,336 Shattuck Ave S,Renton,WA,98057-2499,425.255.0059,Cantu@sasr.org,www.sasr.org,P-8,NP,WCEA,,,,,,
Walla Walla,Walla Walla,St. Basil Academy of Classical Studies  ,1452,Matthew Barnett,2346 S Wilbur,Walla Walla,WA,99362-9746,509.525.9380,"barnett@saintbasilacademy.net
headmaster@saintbasilacademy.net",www.saintbasilacademy.net,K-8,NP,,,,,,,
King,Seattle,St. Benedict School,8063,Brian Anderson,4811 Wallingford Ave N,Seattle,WA,98103-6899,206.633.3375,b.anderson@stbens.net,www.stbens.net,P-8,NP,WCEA,,Yes,Yes,,,
King,Highline,St. Bernadette School,8086,Carol Mendoza,1028 SW 128th St,Seattle,WA,98146-3198,206.244.4934,cmendoza@stbernadettesea.org,www.stbernadettesea.org,P-8,NP,WCEA,,,,,,
King,Northshore,St. Brendan School,8113,Brian Bradish,10049 NE 195th St,Bothell,WA,98011-2931,425.483.8300,brianb@school.saintbrendan.org,www.saintbrendan.org,P-8,NP,WCEA,,,,,,
King,Seattle,St. Catherine School,8064,Pam Schwartz,8524 8th Ave NE,Seattle,WA,98115-3099,206.525.0581,pschwartz@stcatherineschool.net,www.stcatherineschool.net,P-8,NP,WCEA,,,,,,
Kitsap,Bainbridge Island,St. Cecilia Catholic School (formerly St. Cecilia Elem School  2012),8624,Susan Kilban,1310 Madison Ave,Bainbridge Island,WA,98110-1898,206.842.2017,skilbane@saintceciliaschool.org,www.saintceciliaschool.org,P-8,NP,WCEA,,,,,,
Pierce,Tacoma,St. Charles Borromeo School,8141,Brian Bradish,7112 S 12th St,Tacoma,WA,98465-1797,253.564.5185,bbradish@stcharlesb.org,www.stcharlesb.org,P-8,NP,WCEA,,,,,,
Spokane,Spokane,St. Charles School,8192,Joan Veokler,4515 N Alberta St,Spokane,WA,99205-1598,509.327.9575,jvoelker@stcharlesspokane.com,www.stcharlesspokane.com,P-8,NP,WCEA,,,,,,
King,Seattle,St. Edwards School,8065,Mary B. Lundeen,4200 S Mead St,Seattle,WA,98118-2795,206.725.1774,mlundeen@saintedwardseattle.org,www.saintedwardseattle.org,P-8,NP,WCEA,,,,,,
Pierce,Clover Park,St. Frances Cabrini School,8148,Monica Des Jarlais,5621 108th St SW,Lakewood,WA,98499-2205,253.584.3850,mdesjarlais@cabrinischool.org,www.cabrinischool.org,P-8,NP,WCEA,,,,,,
King,Highline,St. Francis of Assisi School,8087,Rosemary Leifer,"15216 21st Ave SW
 (Mail: PO Box 870
Seahurst WA 98062-0870)",Burien,WA,98166-2008,206.243.5690,rleifer@stfoa.org,www.stfoa.org,K-8,NP,WCEA,,,,,,
Benton,Prosser,St. Francis Preparatory School,804Y,Peter Tran,"1904 Highland Dr
(Mail: 2001 Paterson Rd
Prosser WA 99350-1596)",Prosser,WA,99350-1595,509.396.8586,trandvm@yahoo.com,www.webline1.com,9-12,NP,,,Yes,,,,
King,Seattle,St. George School,8067,Monica Wingard,5117 13th Ave S,Seattle,WA,98108-2309,206.762.0656,mwingard@saintgeorgeseattle.org,www.saintgeorgeseattle.org,P-8,NP,AESD,,,,,,
Yakima,Yakima,St. John of Kronstadt Orthodox Christian School  (formerly St. John of Kronstadt Orthodox Christian Church School) (2009),8643,Bethany Forsyth,706 Stewart St,Yakima,WA,98902-4473,509.452.0177,admin@stjohnkronstadt.org,www.stjohnkronstadt.org,K-7,NP,,,,,,,
King,Seattle,St. John School,8069,Bernadette O'Leary,120 N 79th St,Seattle,WA,98103-4688,206.783.0337,boleary@stjohnsea.org,www.st-johnschool.org,P-8,NP,WCEA,,,,,,
Spokane,Central Valley,St. John Vianney School,8205,Sonia Flores-Davis,501 N Walnut Rd,Spokane,WA,99206-3899,509.926.7987,sfloresdavis@dioceseofspokane.org,www.st.johnvianney.com,P-8,NP,WCEA,,,,,,
King,Issaquah,St. Joseph Catholic School of Issaquah,8282,Peg Johnston,220 Mountain Park Blvd,Issaquah,WA,98027-3647,425.313.9129,pjohnston@sjsissaquah.org,www.sjsissaquah.org,P-8,NP,WCEA,,Yes,,,,
King,Snoqualmie,St. Joseph Catholic School--Snoqualmie Campus,805N,Peg Johnston,"38645 SE Newton St
(Mail: 220 Mountain Park Blvd
Issquah WA 98027-3610)",Snqoualmie,WA,98065,425.888.9130,pjohnston@sjsissaquah.org,www.sjsissaquah.org,4-8,NP,WCEA,,,,,,
Yakima,Yakima,St. Joseph Marquette Middle School,8230,Gregg Pleger,202 N 4th St,Yakima,WA,98901-2426,509.575.5557,Gpleger@sjmms.org,www.sjmms.org,P-8,NP,,,,,,,
Clark,Vancouver,St. Joseph School,8010,Mary Ellen LaRose,6500 Highland Dr,Vancouver,WA,98661-7637,360.696.2586,maryellenl@stjoevanschool.org,www.stjoevanschool.org,P-8,NP,WCEA,,,,,,
King,Seattle,St. Joseph School,8070,Patrick Fennessy,700 18th Ave E,Seattle,WA,98112-3900,206.329.3260,pfennessy@stjosephsea.org,www.stjosephsea.org,K-8,NP,WCEA,,,,,,
Lewis,Chehalis,St. Joseph School,8120,Carissa Talley,123 SW 6th St,Chehalis,WA,98532-3203,360.748.0961,ctalley@stjoeschehalis.org,www.stjoeschehalis.com,P-8,NP,WCEA,,,,,,
Benton,Kennewick,St. Joseph's School,8002,Kathleen Cleary,901 W 4th Ave,Kennewick,WA,99336-5535,509.586.0481,kcleary@stjoseph-kennewick.org,stjoseph-kennewick.org,P-8,NP,,,,,,,
Chelan,Wenatchee ,St. Joseph's School,8004,Sr. Olga Cano,600 Saint Joseph Pl,Wenatchee,WA,98801-6299,509.663.2644,"olga.cano@yakimadiocese.org
sr.cano@saintjosephcatholicschool.org",www.saintjosephcatholicschool.org,P-5,NP,,,,,,,
King,Bellevue,St. Louise School,8094,Dan Fitzpatrick,133 156th Ave SE,Bellevue,WA,98007-5399,425.746.4220,Danf@stlouiseschool.org,www.stlouiseschool.org,P-8,NP,WCEA,,,,,,
King,Shoreline,St. Luke School,8103,Richard Boyle,17533 Saint Luke Pl N,Shoreline,WA,98133-4799,206.542.1133,boyler@stlukeshoreline.org,www.stlukeshoreline.org,P-8,NP,WCEA,,Yes,,,,
King,Bellevue,St. Madeleine Sophie School,1434,Daniel Sherman,4400 130th Pl SE,Bellevue,WA,98006-2014,425.747.6770,dsherman@stmadsophie.org,www.smsbellevue.org,P-8,NP,WCEA,,Yes,Yes,,,
King,Shoreline,St. Mark School,8104,Kathryn Palmquist-Keck,18033 15th Pl NE,Shoreline,WA,98155-3894,206.364.1633,principal@stmss.org,stmss.org,P-8,NP,WCEA,,,,,,
Snohomish,Everett,St. Mary Magdalen School,8159,Zack Cunningham,8615 7th Ave SE,Everett,WA,98208-2043,425.353.7559,zcunningham@stmarym.org,www.stmarym.org,P-8,NP,WCEA,,,,,,
Grays Harbor,Aberdeen,St. Mary School,8022,Nicole St. Mary-Franson,518 North H St,Aberdeen,WA,98520-4012,360.532.1230,"principal@saintmaryschool.org
nfranson@saintmaryschool.org",www.saintmaryschool.org,P-8,NP,WCEA,,,,,,
Pierce,Bethel,St. Mary's Academy,1414,Sr. Mary Petra,757 138th St S,Tacoma,WA,98444-3468,253.537.6281,lumenchristi33@gmail.com,www.stmarys-parish.org,K-9,NP,,,,,,,
Spokane,Central Valley,St. Mary's Catholic School,8201,Lauri Nauditt,14601 E 4th Ave,Spokane,WA,99216-2194,509.924.4300,lnauditt@dioceseofspokane.org,www.stmarysspokane.org,P-8,NP,WCEA,,,,,,
Spokane,Spokane,St. Matthew Lutheran School,8293,Patrick Cortright,6917 N Country Homes Blvd,Spokane,WA,99208-4216,509.327.5601,principal@stmatthewspokane.org,stmatthewspokane.org,P-8,NP,,,,,,,
King,Seattle,St. Matthew School,8073,Karen Herlihy,1230 NE 127th St,Seattle,WA,98125-4021,206.362.2785,kherlihy@stmattschool.org,www.stmattschool.org,P-8,NP,WCEA,,,,,,
Snohomish,Snohomish,St. Michael Catholic School,1473,Dr. Karen Matthews,1514 Pine Ave,Snohomish,WA,98290-1826,360.568.0821 x 104,Principal@smpschool.org,www.smpschool.org,P-8,NP,WCEA,,,,,,
Thurston,Olympia,St. Michael School,8210,Connor Geraghty,1204 11th Ave SE,Olympia,WA,98501-1627,360.754.5131,cgeraghty@stmikesolympia.org,http://stmikesolympia.org,P-8,NP,WCEA,,,,,,
Spokane,Orchard Prairie,St. Michael's Academy,8312,Sr. Marie Vianney ,8500 N St Michael's Rd,Spokane,WA,99217-9333,509.467.0986 x 118,srmvianney@cmri.org,www.stmichaelsacademy.org,K-12,NP,,,,,,,
King,Mercer Island,St. Monica Parish School (formerly St. Monica School  2014),8081,Anca Wilson,4320 87th Ave SE,Mercer Island,WA,98040-4128,206.232.5432,awilson@stmonicasea.org ,www.stmonicasea.org,P-8,NP,NWAC,,,,,,
Pierce,Peninsula,St. Nicholas School,8161,Amy Unruh,3555 Edwards Dr,Gig Harbor,WA,98336-1163,253.858.7632,aunruh@sncsgh.org,www.stnicholascs.org,P-8,NP,WCEA,,,,,,
Franklin,Pasco,St. Patrick School,8018,Kristine Peugh,1016 N 14th Ave,Pasco,WA,99301-4191,509.547.7261,principal@stpatspasco.org,www.stpatspasco.org,K-8,NP,WCEA,,,,,,
Pierce,Tacoma,St. Patrick School,8143,Christopher Gavin,1112 North G St,Tacoma,WA,98403-2518,253.272.2297,cgavin@saintpats.org,www.saintpats.org,P-8,NP,WCEA,,,,,,
King,Seattle,St. Paul School,8075,Betsy Kromer McCormick,10001 57th Ave S,Seattle,WA,98178-2299,206.725.0780,bkromer@seattlestpaul.org,www.seattlestpaul.org,P-8,NP,WCEA,,,,,,
Whatcom,Bellingham,St. Paul's Academy  ,Satiillite of St. Paul's,James Estill,3000 Northwest Ave,Bellingham,WA,98225-1607,360.733.1750,jestill@sp-academy.org,sp-academy.org,,NP,,,,,,,
Whatcom,Bellingham,St. Paul's Academy  (formerly St. Paul Episcopal School) (2009),802K,James Estill.,1509 E Victor Street ,Bellingham,WA,98225-1639,360.733.1750,jestill@sp-academy.org,www.sp-academy.org,P-12,NP,NWAC,,,,,,
Chelan,Wenatchee ,St. Paul's Lutheran School,8915,Tara Breidert,"312 Palouse St                               
(Mail: PO Box 2219                   
Wenatchee WA 98807-2219)",Wenatchee,WA,98801-2641,509.662.4757,principalstpaul@nwi.net,www.stpaulslutheranschool.com,P-5,NP,,,,,,,
King,Highline,St. Philomena School,8646,Dr. Stephen Morissette,1815 S 220th St,Des Moines,WA,98198-7998,206.824.4051,smorissette@stphil.com,www.stphilomenaschool.com,P-8,NP,WCEA,,,,,,
Snohomish,Edmonds,St. Pius X School,8168,Clinton Parker,22105 58th Ave W,Mountlake Terrace,WA,98043-3898,425.778.9861,cparker@stpx.org,www.stpx.org,P-8,NP,WCEA,,,,,,
Grant,Ephrata,St. Rose of Lima School,8021,Stefanie Bafus,520 Nat Washington Way,Ephrata,WA,98823-2287,509.754.4901,sbafus@saintroseschool.org,www.saintroseschool.org,P-6,NP,,,Yes,,,,
Cowlitz,Longview,St. Rose School,8015,Cathy Strader,720 26th Ave,Longview,WA,98632-1856,360.577.6760,cstrader@strose-school.org,www.strose-school.org,P-8,NP,WCEA,,,,,,
King,Seattle,St. Therese Catholic Academy (formerly St. Therese School  2012),8076,Matthew DeBoer,900 35th Ave,Seattle,WA,98122-5299,206.324.0460,"mdeboer@stcaseattle.org
thagemann@sttheresesea.org",www.stcaseattle.org,P-8,NP,WCEA,,,,,,
Snohomish,Edmonds,St. Thomas More School,8169,"Teresa Fewel, Principal",6511 176th St SW,Lynnwood,WA,98037-2929,425.743.4242,Terri.Fewel@stms.org,www.stms.org,P-8,NP,WCEA,,,,,,
Spokane,Mead,St. Thomas More School,8200,Deacon Douglas P Banks,515 W St Thomas More Way,Spokane,WA,99208-6026,509.466.3811,dougbanks@thomasmorespokane.org,www.thomasmorespokane.org,P-8,NP,WCEA,,,,,,
King,Bellevue,St. Thomas School (formerly St. Thomas Day School   2011),8095,Dr. Kirk Wheeler,8300 NE 12th St,Medina,WA,98039-3100,425.454.5880,"kirk.wheeler@stthomasschool.org
HoS@stthomasschool.org",www.stthomasschool.org,P-8,NP,NWAIS,,,,,,
King,Federal Way,St. Vincent De Paul School,8077,Wanda Stewart,30527 8th Ave S,Federal Way,WA,98003-4100,253.839.3532,stv-stew@msn.com,www.stvs.org,P-8,NP,WCEA,,,,,,
Lincoln,Odessa,Stahlville School,8595,Ana Lobe,"33 E Snowden Rd                        
(Mail: 1485 BN Hoffman Rd          
Ritzville 99169-8723)",Odessa,WA,99159-9745,509.659.0108,amklobe@hotmail.com,,K-12,NP,,,,,,,
Snohomish,Edmonds,Stella Maris Academy,801S,Ingrid Marlow,"410 4th Ave N                             
(Mail:  PO box 842                      
Edmonds WA 98024-0842)",Edmonds,WA,98020-3119,360.731.8764,stellamarisacademywa@gmail.com,https://sites.google.com/site/stellamarisacademywa0/,1-11,NP,,,,,,,
San Juan,San Juan,Stillpoint School,1475,Margaret Hodgkin,"775 Park St                                  
(Mail: PO Box 576                           
Friday Harbor 98250-0576)",Friday Harbor,WA,98250-9609,360.378.2331,hodgkins@rockisland.com,www.StillpointSchool.org,K-6,NP,,,,,,,
Snohomish,Mukilteo,Sulamita Christian School,803V,Vida Smith,12420 Evergreen Dr,Mukilteo,WA,98275-5708,425.298.7676,VidaMSmith@hotmail.com,www.sulamitachristianschool.com,P-12,NP,,,,,,,
Spokane,Mead,Summit Christian Academy (former Slavic Christian Acad--Spokane  2014) ,1494,Yuliya Tarasov,8913 N Nettleton Ln                                  ,Spokane,WA,99206-8001,888.924.4618 x 202,"summitacademy@ncek12.com
esolodyankin@ncek12.com",www.ncek12.com,P-12,NP,NWAC,,,,,,
King,Snoqualimie Valley,Summit Classical Christian School,1479,Dr. Timothy Orton,32725 SE 42nd St       ,Fall City,WA,98024-8728,425.222.0564,"timothyorton@summitclassical.org
headmaster@summitclassical.org",www.summitclassical.org,P-10,NP,,,,,,,
Jefferson,Chimacum,Sunfield Waldorf School (formerly Sunfield Farm School-2011),801C,Beth Ann O'Dell,"111 Sunfield Ln                             
(Mail: PO Box 85                         
Port Hadlock  98339-0085)",Port Hadlock,WA,98339,360.385.3658,bodell@sunfieldfarm.org,www.sunfieldfarm.org,P-8,NP,AWSNA,,,,,,
Yakima,Sunnyside,Sunnyside Christian School,8235,Gary Kamps,811 North Ave,Sunnyside,WA,98944-1194,509.837.3044,gary.kamps@sunnysidechristianschool.org,www.sunnysidechristianschool.org,P-8,NP,,,,,,,
Yakima,Sunnyside,Sunnyside Christian School (2nd Location),8823,Gary Kamps,1820 Sheller Rd,Sunnyside,WA,98944-9283,509.837.8995,del.dykstra@sunnysidechristianschool.org,www.sunnysidechristianschool.org,9-12,NP,,,,,,,
Thurston,Olympia,Sunrise Beach School,8025,Roxanne Reis Cox,"1601 North Street
(Mail: PO Box 13409
Olympia WA 98508-3409)",Olympia,WA,98501-3666,360.866.1343,Info@SunriseBeachSchool.org,www.SunriseBeachSchool.org,P-12,NP,,,,,,,
Jefferson,Port Townsend,Swan School,8177,Russell Yates,2345 Kuhn St,Port Townsend,WA,98368-6227,360.385.7340,russ@swanschool.net,http://www.swanschool.net,P-6,NP,,,,,,,
King,Issaquah,Synergy Learning Academy,804Z,ViJi Rahman,1555 NW Sammamish Rd,Issaquah,WA,98027-5376,425.503.0443,viji@synergylearningacademy.com,www.synergylearningacademy.com,P-8,NP,,,,,,,
Pierce,Tacoma,Tacoma Christian Academy (formerly Slavic Christian Acad-Tacoma 2014),1495,Aleksandr Slobodyankin,2014 S 15th St                                 ,Tacoma,WA,98405-2905,"253.572.1742
888.924.4618 x 221",aslobodyanik@tacomachristianacademy.com,www.ncek12.com,P-12,NP,NWAC,,,,,,
Pierce,Tacoma,Centerpoint Christian Fellowship (Satellite of Tacoma Christian Academy),Satellite of TCA,Alex Slobodyankin,2041 S 66th St.,Tacoma,WA,98409,253.359.0608,principal@tacomachristianacademy.com,www.ncek12.com,K-5,,,,,,,,
Pierce,Tacoma,Tacoma Waldorf School,1456,Chanin Escovedo,2710 N Madison,Tacoma,WA,98407-5230,253.383.8711,"admin@tacomawaldorf.org
deanofadmin@tacomawaldorf.org",www.tacomawaldorf.org,P-5,NP,AWSNA,,,,,,
King,Seattle,Taproot School,803D,Michelle Taylor,9131 California Ave SW,Seattle,WA,98136-2551,206.849.7146,grow@taprootschool.org,www.taprootschool.org,K-5,P,,,,,,,
King,Bellevue,Tarteel School (formerly Alfursan School 2017),805I,Mohamed Baker,13219 NE 20th St #209,Bellevue,WA,98005-2020,425.998.8606,fursanschool@gmail.com,fursanschool.com,P-2,P,,,,,,,
King,Lake Washington,The Bear Creek School,8887,Patrick Carruth,8905 208th Ave NE,Redmond,WA,98053-4506,425.898.1720,patrick.carruth@tbcs.org,www.tbcs.org,P-12,NP,NWAC,,,,,,
King,Highline,The Bridge School,802O,Anne M. York,"1005 SW 152nd St
(Mail: PO Box 48074
Burien 98148-0074)",Burien ,WA,98166-1845,206.912.1202,anne@buriencoopeducation.org,www.BridgeSchoolCoop.org,K-6,NP,,,,,,,
King,Seattle,The Bush School,8037,Dr. Percy Abram,3400 E Harrison,Seattle,WA,98112-4268,206.322.7978,Percy.Abram@Bush.edu,www.bush.edu,K-12,NP,NAIS,,,,,,
King,Northshore,The Clearwater School,8372,"Stephanie Sarantos, Ph.D.",1510 196th St SE,Bothell,WA,98012-7107,425.489.2050,sdsarantos@gmail.com,www.clearwaterschool.com,P-12,NP,,,Yes,,,,
Pierce,Tacoma,The Cor Deo School (formerly First Presbyterian Church School 2017),8598,Matthew Shuts,20 Tacoma Avenue S,Tacoma,WA,98402-2697,253.272.7145,mshuts@thecordeoschool.org,www.fpcschool.org,K-6,NP,,,,,,,
King,Bellevue,The Eastside Montessori School,803E,Christine First,1934 108th Ave NE,Bellevue,WA,98004-2828,425.213.5627,christine@eastsidemontessorischool.com,www.eastsidemontessorischool.com,1-6,P,,,,,,,
Clark,Battle Ground,The Gardner School of Arts and Sciences,8071,Jeffrey Kubiak,16413 NE 50th Ave,Vancouver,WA,98686-1843,360.574.5752,jkubiak@gardnerschool.org,www.gardnerschool.org,P-8,NP,,,,,,,
King,Bellevue,The Gemini School,805A,Ethan Bergeson,2375 130th Ave NE  Suite 100,Bellevue,WA,98005-1758,425.452.8036,ethan@nwneuropsych.com,http://www.thegeminischool.org/,1-12,P,,,,,,,
Kitsap,Bainbridge Island,The Island School,8487,Trish King,8553 NE Day Rd,Bainbridge Island,WA,98110-1395,206.842.0400,trish@theislandschool.org,www.theislandschool.org,K-5,NP,NAIS,,,,,,
King,Lake Washington,The Kineo School,805O,Lindsey Yocum,"7525 132nd NE
(Mail: 8220 208th Ave NE
Redmond WA 98053-7510",Kirkland,WA,98038-8543,425.213.6741,lindsey@kineoschool.org,www.kineoschoo.org,K-5,NP,,,,,,,
King,Seattle,The Lake and Park School,801Y,Camille Hayward,3201 Hunter Blvd S,Seattle,WA,98144-7029,206.721.3480,admin@lakeandparkschool.org,www.lakeandpark.org,P-5,NP,,,,,,,
King,Bellevue,The Little School,8244,Peter Berner-Hays,2812 116th Ave NE,Bellevue,WA,98004-1421,425.827.8078,peterbh@thelittleschool.org,www.thelittleschool.org,P-5,NP,NAIS,,,,,,
King,Northshore,The Madrone School,805B,Lindsey McGrew,10020 166th Ave NE,Redmond,WA,98052-3010,425.269.1833,lindseymcgrew@gmail.com,www.themadroneschool.org,K-5,NP,,,Yes,,,,
Whitman,Pullman,The Montessori School of Pullman,804K,Beverley Wolff,115 NW State St,Pullman,WA,99163-2616,509.334.4114,montessori@pullman.com,www.pullmanmontessori.org,P-4,NP,,,,,,,
Spokane,Spokane,The Moose Project,805C,Kristi Anderson,801 E 2nd Ave,Spokane,WA,99202-2225,509.443.5905,mooseproject@comcast.net,www.mooseproject.net,P-8,NP,,,,,,,
Thurston,Rainier,The Phoenix Rising School,803F,Jorge-Ayn Riley,"13411 Cedar Grove Ln
(Mail: PO Box 1010
Rainier WA 98576-1010)
(Mail: PO Box 1010
(Mail: PO Box 1010
Rainier WA 98576-1010)",Rainier,WA,98576-9558,360.446.1500,"nazila@thephoenixrisingschool.org
office@thephoenixrisingschool.org",www.thephoenixrisingschool.org,P-5,NP,,,,,,,
Chelan ,Wenatchee ,The River Academy,803S,Eric DeVries,"650 Crawford Ave
(Mail: PO Box 4485
Wenatchee 98807-4485)",Wenatchee,WA,98801-3651,509.665.2415,eric.devries@theriveracademy.org,theriveracademy.org,P-12,NP,,,,,,,
King,Lake Washington,The Sammamish Montessori School,1416,Janet Villella,7655 178th Pl NE,Redmond,WA,98052-4953,425.883.3271,janet@sammamishmontessori.com,www.sammamishmontessori.com,P-3,P,AMS,,,,,,
King,Seattle,The Valley School (formerly Valley School 2016),8908,Alan Braun,318 30th Ave E,Seattle,WA,98112-4819,206.328.4475,alanb@thevalleyschool.org,www.thevalleyschool.org,P-5,NP,,,,,,,
King,Bellevue,Three Cedars Waldorf School,8460,Tracy Bennett,556 124th Ave NE,Bellevue,WA,98005-3100,425.401.9874 x 101,tracy.bennett@seattlewaldorf.org,www.threecedarswaldorf.org,P-8,NP,AWSNA,,,,,,
King,Bellevue,Three Points Elementary,8560,Kevin Dunning,"7800 NE 28th St                          
(Mail: 1601 98th Ave NE         
Clyde Hill 98004-3400)",Medina,WA,98039-1536,425.454.3977,kevin.dunning@bellevuechristian.org,www.bellevuechristian.org,P-6,NP,CSI,,Yes,Yes,,,
Cowlitz,Longview,Three Rivers Christian School (formerly Three Rivers Christian School--Kelso Jr./Sr. High Campus--2016; formerly Three Rivers Christian School-Cornerstone Jr/Sr High–2009),8257,Erin Hart,2441 42nd Ave,Longview,WA,98632-4961,360.636.1600,ehart@3riversschool.net,www.3riversschool.net,7-12,NP,ACSI,,,Yes,,,
Cowlitz,Longview,Three Rivers Christian School-Longview Elem,8016,Erin Hart,2610 Ocean Beach Hwy,Longview,WA,98632-3598,360.423.4510,ehart@3riversschool.net,3riversschool.net,P-6,NP,ACSI,,,Gifted,,,
King,Highline,Three Tree Montessori,8997,Thomas Rzegocki,220 SW 160th St,Burien,WA,98166-3026,206.242.5100,tom.rzegocki@threetree.org,www.threetree.org,P-6,NP,,,,,,,
King,Seattle,Tilden School,1457,Monica Riva,"4105 California Ave SW
(Mail: 2141 45th Ave SW
Seattle WA 98116-2103)",Seattle,WA,98116-4101,206.938.4628,info@tildenschool.org,www.tildenschool.org,K-5,NP,,,,,,,
King,Lake Washington,TLC Montessori (formerly TLC Academy 2012),1437,Kyungah Kim,21512 NE 16th St,Sammamish,WA,98074-6728,425.868.1943,kim@tlcmontessori.net,www.tlcmontessori.net,P-3,P,,,,,,,
King,Seattle,Torah Day School of Seattle,1459,Rabbi Yona Margolese,1625 S Columbian Way,Seattle,WA,98108-4634,206.722.1200,RabbiMargolese@tdsseattle.org,www.tdsseattle.org,P-8,NP,NAIS,,,,,,
Franklin,Pasco,Tri-Cities Preparatory School,8309,Arlene Jones,9612 St Thomas Dr,Pasco,WA,99301-4744,509.546.2465,ajones@tcprep.org,www.tcprep.org,9-12,NP,,,,,,,
Franklin,Pasco,Tri-City Adventist School (formerly Tri-City Junior Academy--2014),8019,Spencer Hannah,4115 W Henry St,Pasco,WA,99301-2999,509.547.8092,"office@mytcas.org 
s.hannah@mytcas.org",tcas.org,K-10,NP,SDA,,,,,,
Spokane,Spokane,Trinity Catholic School,8190,Sandra Nokes,1306 W Montgomery Ave,Spokane,WA,99205-4300,509.327.9369,snokes@dioceseofspokane.org,trinityspokane.com,P-8,NP,WCEA,,,,,,
King,Northshore,UCiC School,801O,Seungho Pi,3727 240th St SE,Bothell,WA,98021-8975,425.939.1133,drpiucic@gmail.com,www.ucicschool.org,K-5,NP,,,,,,,
King,Seattle,University Child Development School,8838,Paula Smith,5062 9th Ave NE,Seattle,WA,98105-3605,206.547.8237,PaulaS@ucds.org,www.ucds.org,P-5,NP,NAIS,,,,,,
King,Seattle,University Cooperative School,8428,Jim Riley,5601 University Ave NE,Seattle,WA,98105-2619,206.524.0653,jim@ucoopschool.org,www.ucoopschool.org,K-5,NP,,,,,,,
King,Seattle,University Preparatory,8399,Matt Levinson,8000 25th Ave NE,Seattle,WA,98115-4600,206.525.2714,mlevinson@universityprep.org,www.universityprep.org,6-12,NP,NAIS,,,,,,
Spokane,Liberty,Upper Columbia Academy,8204,John Winslow,3025 E Spangle Waverly Rd,Spangle,WA,99031-9703,509.245.3612,john.winslow@ucaa.org,ucaa.org,9-12,NP,NWAC,,,,,,
Spokane,Liberty,Upper Columbia Academy Elementary ,1491,Gordon Smith,3025 E Spangle Waverly Rd,Spangle,WA,99031-9703,509.245.3629,gordon.smith@ucaes.org,ucaes.org,1-8,NP,SDA,,,,,,
Chelan,Cascade,Upper Valley Christian School,8541,Dwight Pflugrath,111 Ski Hill Dr,Leavenworth ,WA,98826-5027,509.548.5292,ddpflu@gmail.com,uvcschool.org,P-12,NP,,,,,,,
King,Auburn,Valley Christian School,8443,Joshua Snyder,1312 2nd St SE,Auburn,WA,98002-5755,253.833.3541,joshua.snyder@valley-christian.com,www.valley-christian.com,P-8,NP,,,,,,,
Spokane,Central Valley,Valley Christian School--Central Valley,8360,Derick Tabish,10212 E 9th Ave,Spokane Valley,WA,99206-6944,509.924.9131,office@vcsc.org,valleychristianschool.org,P-12,NP,ACSI,,,,,,
King,Seattle,Villa Academy,8056,John K. Milroy,5001 NE 50th St,Seattle,WA,98105-2899,206.524.8885,jmilroy@thevilla.org,www.thevilla.org,P-8,NP,NAIS,,,,,,
Pierce,Tacoma,Visitation Catholic STEM Acad (formerly Visitation Schl  2013),8146,Marc Nuno,3306 S 58th St,Tacoma,WA,98409-5306,253.474.6424,nunom@visitationschool.net,http://www.visitationstemacademy.org/,P-8,NP,WCEA,,,,,,
Walla Walla,College Place,Walla Walla Valley Academy,8214,Brian Harris,300 SW Academy Way,College Place,WA,99324-1283,509.525.1050,harrbr@wwva.org,www.wwva.org,9-12,NP,NWAC,,Yes,,,,
Adams,Lind,Warden Hutterian School,8335,Albert Wollman,1054 W Harder Rd,Warden,WA,98857-9650,509.349.8045,"alwol@whborg.com
alwoll@gmail.com",whborg.com,P-12,NP,,,,,,,
King,Seattle,Washington Academy of Muslim Educatoin,805P,A Alqanuni,"4272 S Mead
(Mail: 3621 33rd Ave S  Suite A133
Seattle WA 98144-6955)",Seattle ,WA,98118-2702,360.842.6263,foraared@outlook.com,,1-12,,,,,,,,
King,Seattle,Washington Preparatory School,805Q,"Joe Kennedy, Interim",18323 Bothell-Everett Hwy  Suite 360,Bothell,WA,98012-5246,206.355.7636,jkennedywaprep@yahoo.com,,6-12,P,,,,,,,
Yakima,Yakima,West Chestnut Academy (formerly Westpark Christian Academy  2017),1486,Colleen Sheahan,1214 W Chestnut Ave,Yakima,WA,98902-3121,509.966.1632,pc@wcayakima.org,www.wcayakima.org,P-12,NP,,,Yes,,,,
King,Seattle,West Seattle Montessori School,8828,Angela Sears Ximenes,"11215 16th Ave SW                     
(Mail: 10241 California Ave SW                            
Seattle WA 98146)",Seattle,WA,98146-3564,206.935.0427,searsar@hotmail.com,www.westseattlemontessori.com,P-8,P,,,,,,,
Kitsap,North Kitsap,West Sound Academy,8301,Barrie Hillman,"16571 Creative Dr NE                          
(Mail: PO Box 807                               
Poulsbo WA 98370-0807)",Poulsbo,WA,98370-8661,360.598.5954,bhillman@westsoundacademy.org,www.westsoundacademy.org,6-12,NP,NWAC,Yes,,,,,
King,Seattle,Westside School,8916,Ted Kalmus,10404 34th Ave SW,Seattle,WA,98146-1270,206.932.2511,tedk@westsideschool.org,www.westsideschool.org,P-8,NP,NAIS,,,,,,
Whatcom,Bellingham,Whatcom Hills Waldorf,8869,Kathleen Fraser,941 Austin St,Bellingham,WA,98229-2705,360.733.3164,kathy@whws.org,www.whws.org,P-8,NP,AWSNA,,,,,,
Island,South Whidbey,Whidbey Island Waldorf School,8974,Michael Soule,"6335 Old Pietila Rd                  
(Mail: PO Box 469          
Clinton WA 98236-0469)",Clinton,WA,98236-8602,360.341.5686,administrator@wiws.org,www.wiws.org,P-8,NP,,,,,,,
King,Northshore,Whole Earth Montessori School,8876,"Joseph Galante, M.Ed.",2930 228th St SE,Bothell,WA,98021-8927,425.486.3037,joe@wemschool.org,www.wemschool.org,P-6,NP,AMS,,,,,,
King,Lake Washington,Willows Preparatory School,803T,Yuka Shimizu,"12280 Woodinville-Redmond Rd NE
(Mail: 14600 NE 24th St 
Bellevue 98007-3723)",Redmond,WA,98052-2010,425.555.1234,yukashimizu@bcacademy.com,www.willowsprep.org,6-8,P,,,,,,,
King,Northshore,Woodinville Montessori School--North Creek Campus,8856,Mary Schneider,19102 North Creek Parkway,Bothell,WA,98011-8005,425.482.3184,mschneider@woodinvillemontessori.org,www.woodinvillemontessori.org,P-12,NP,NAIS,,,,,,
Yakima,Yakima,Yakima Adventist Christian School,8232,Renae Young,1200 City Reservoir Rd,Yakima,WA,98908-2144,509.966.1933,principal@yacsschool.org,www.yacsschool.org,P-10,NP,SDA,,,,,,
King,Mercer Island,Yellow Wood Academy (formerly ETC Prep Academy–2012),8044,Jan Schrag,"9655 SE 36th St, Suite 101",Mercer Island,WA,98040-3798,206.236.1095,jans@yellowwoodacademy.org,http://www.yellowwoodacademy.org,K-12,NP,,,,,,,
Snohomish,Lake Stevens,Zion Lutheran School,8173,Lynne Hereth,3923 103rd Ave SE,Lake Stevens,WA,98258-5763,425.334.5064,lynnehereth.zioneverett@gmail.com,www.zionls.org,P-8,NP,NLSA,,,,,,
,,,,,,,,,,,,,,,,,,,,
,,,,,,,,,,,,,,,,,,,,
,,,,,,,,,,,,,,,,,,,,
,,,,,,,,,,,,,,,,,,,,
,,,,,,,,,,,,,,,,,,,,
,,,,,,,,,,,,,,,,,,,,
,,,,,,,,,,,,,,,,,,,,
,,,,,,,,,,,,,,,,,,,,
,,,,,,,,,,,,,,,,,,,,
,,,,,,,,,,,,,,,,,,,,
,,,,,,,,,,,,,,,,,,,,
,,,,,,,,,,,,,,,,,,,,
,,,,,,,,,,,,,,,,,,,,
,,,,,,,,,,,,,,,,,,,,
,,,,,,,,,,,,,,,,,,,,
,,,,,,,,,,,,,,,,,,,,
,,,,,,,,,,,,,,,,,,,,
,,,,,,,,,,,,,,,,,,,,
,,,,,,,,,,,,,,,,,,,,
,,,,,,,,,,,,,,,,,,,,
,,,,,,,,,,,,,,,,,,,,
,,,,,,,,,,,,,,,,,,,,
,,,,,,,,,,,,,,,,,,,,
,,,,,,,,,,,,,,,,,,,,
,,,,,,,,,,,,,,,,,,,,
,,,,,,,,,,,,,,,,,,,,
,,,,,,,,,,,,,,,,,,,,
,,,,,,,,,,,,,,,,,,,,
,,,,,,,,,,,,,,,,,,,,
,,,,,,,,,,,,,,,,,,,,
,,,,,,,,,,,,,,,,,,,,
,,,,,,,,,,,,,,,,,,,,
,,,,,,,,,,,,,,,,,,,,
,,,,,,,,,,,,,,,,,,,,
,,,,,,,,,,,,,,,,,,,,
,,,,,,,,,,,,,,,,,,,,
,,,,,,,,,,,,,,,,,,,,
,,,,,,,,,,,,,,,,,,,,
,,,,,,,,,,,,,,,,,,,,
,,,,,,,,,,,,,,,,,,,,
,,,,,,,,,,,,,,,,,,,,
,,,,,,,,,,,,,,,,,,,,
,,,,,,,,,,,,,,,,,,,,
,,,,,,,,,,,,,,,,,,,,
,,,,,,,,,,,,,,,,,,,,
,,,,,,,,,,,,,,,,,,,,
,,,,,,,,,,,,,,,,,,,,
,,,,,,,,,,,,,,,,,,,,
,,,,,,,,,,,,,,,,,,,,
,,,,,,,,,,,,,,,,,,,,
,,,,,,,,,,,,,,,,,,,,
,,,,,,,,,,,,,,,,,,,,
,,,,,,,,,,,,,,,,,,,,
,,,,,,,,,,,,,,,,,,,,
,,,,,,,,,,,,,,,,,,,,
,,,,,,,,,,,,,,,,,,,,
,,,,,,,,,,,,,,,,,,,,
,,,,,,,,,,,,,,,,,,,,
,,,,,,,,,,,,,,,,,,,,
,,,,,,,,,,,,,,,,,,,,
,,,,,,,,,,,,,,,,,,,,
,,,,,,,,,,,,,,,,,,,,
,,,,,,,,,,,,,,,,,,,,
,,,,,,,,,,,,,,,,,,,,
,,,,,,,,,,,,,,,,,,,,
,,,,,,,,,,,,,,,,,,,,
,,,,,,,,,,,,,,,,,,,,
,,,,,,,,,,,,,,,,,,,,
,,,,,,,,,,,,,,,,,,,,
,,,,,,,,,,,,,,,,,,,,
,,,,,,,,,,,,,,,,,,,,
,,,,,,,,,,,,,,,,,,,,
,,,,,,,,,,,,,,,,,,,,
,,,,,,,,,,,,,,,,,,,,
,,,,,,,,,,,,,,,,,,,,
,,,,,,,,,,,,,,,,,,,,
,,,,,,,,,,,,,,,,,,,,
,,,,,,,,,,,,,,,,,,,,
,,,,,,,,,,,,,,,,,,,,
,,,,,,,,,,,,,,,,,,,,
,,,,,,,,,,,,,,,,,,,,
,,,,,,,,,,,,,,,,,,,,
,,,,,,,,,,,,,,,,,,,,
,,,,,,,,,,,,,,,,,,,,
,,,,,,,,,,,,,,,,,,,,
,,,,,,,,,,,,,,,,,,,,
,,,,,,,,,,,,,,,,,,,,
,,,,,,,,,,,,,,,,,,,,
,,,,,,,,,,,,,,,,,,,,
,,,,,,,,,,,,,,,,,,,,
,,,,,,,,,,,,,,,,,,,,
,,,,,,,,,,,,,,,,,,,,
,,,,,,,,,,,,,,,,,,,,
,,,,,,,,,,,,,,,,,,,,
,,,,,,,,,,,,,,,,,,,,
,,,,,,,,,,,,,,,,,,,,
,,,,,,,,,,,,,,,,,,,,
,,,,,,,,,,,,,,,,,,,,
,,,,,,,,,,,,,,,,,,,,
,,,,,,,,,,,,,,,,,,,,
,,,,,,,,,,,,,,,,,,,,
,,,,,,,,,,,,,,,,,,,,
,,,,,,,,,,,,,,,,,,,,
,,,,,,,,,,,,,,,,,,,,
,,,,,,,,,,,,,,,,,,,,
,,,,,,,,,,,,,,,,,,,,
,,,,,,,,,,,,,,,,,,,,
,,,,,,,,,,,,,,,,,,,,
,,,,,,,,,,,,,,,,,,,,
,,,,,,,,,,,,,,,,,,,,
,,,,,,,,,,,,,,,,,,,,
,,,,,,,,,,,,,,,,,,,,
,,,,,,,,,,,,,,,,,,,,
,,,,,,,,,,,,,,,,,,,,
,,,,,,,,,,,,,,,,,,,,
,,,,,,,,,,,,,,,,,,,,
,,,,,,,,,,,,,,,,,,,,
,,,,,,,,,,,,,,,,,,,,
,,,,,,,,,,,,,,,,,,,,
,,,,,,,,,,,,,,,,,,,,
,,,,,,,,,,,,,,,,,,,,
,,,,,,,,,,,,,,,,,,,,
,,,,,,,,,,,,,,,,,,,,
,,,,,,,,,,,,,,,,,,,,
,,,,,,,,,,,,,,,,,,,,
,,,,,,,,,,,,,,,,,,,,
,,,,,,,,,,,,,,,,,,,,
,,,,,,,,,,,,,,,,,,,,
,,,,,,,,,,,,,,,,,,,,
,,,,,,,,,,,,,,,,,,,,
,,,,,,,,,,,,,,,,,,,,
,,,,,,,,,,,,,,,,,,,,
,,,,,,,,,,,,,,,,,,,,
,,,,,,,,,,,,,,,,,,,,
,,,,,,,,,,,,,,,,,,,,
,,,,,,,,,,,,,,,,,,,,
,,,,,,,,,,,,,,,,,,,,
,,,,,,,,,,,,,,,,,,,,
,,,,,,,,,,,,,,,,,,,,
,,,,,,,,,,,,,,,,,,,,
,,,,,,,,,,,,,,,,,,,,
,,,,,,,,,,,,,,,,,,,,
,,,,,,,,,,,,,,,,,,,,
,,,,,,,,,,,,,,,,,,,,
,,,,,,,,,,,,,,,,,,,,
,,,,,,,,,,,,,,,,,,,,
,,,,,,,,,,,,,,,,,,,,
,,,,,,,,,,,,,,,,,,,,
,,,,,,,,,,,,,,,,,,,,
,,,,,,,,,,,,,,,,,,,,
,,,,,,,,,,,,,,,,,,,,
,,,,,,,,,,,,,,,,,,,,
,,,,,,,,,,,,,,,,,,,,
,,,,,,,,,,,,,,,,,,,,
,,,,,,,,,,,,,,,,,,,,
,,,,,,,,,,,,,,,,,,,,
,,,,,,,,,,,,,,,,,,,,
,,,,,,,,,,,,,,,,,,,,
,,,,,,,,,,,,,,,,,,,,
,,,,,,,,,,,,,,,,,,,,
,,,,,,,,,,,,,,,,,,,,
,,,,,,,,,,,,,,,,,,,,
,,,,,,,,,,,,,,,,,,,,
,,,,,,,,,,,,,,,,,,,,
,,,,,,,,,,,,,,,,,,,,
,,,,,,,,,,,,,,,,,,,,
,,,,,,,,,,,,,,,,,,,,
,,,,,,,,,,,,,,,,,,,,
,,,,,,,,,,,,,,,,,,,,
,,,,,,,,,,,,,,,,,,,,
,,,,,,,,,,,,,,,,,,,,
,,,,,,,,,,,,,,,,,,,,
,,,,,,,,,,,,,,,,,,,,
,,,,,,,,,,,,,,,,,,,,
,,,,,,,,,,,,,,,,,,,,
,,,,,,,,,,,,,,,,,,,,
,,,,,,,,,,,,,,,,,,,,
,,,,,,,,,,,,,,,,,,,,
,,,,,,,,,,,,,,,,,,,,
,,,,,,,,,,,,,,,,,,,,
,,,,,,,,,,,,,,,,,,,,
,,,,,,,,,,,,,,,,,,,,
,,,,,,,,,,,,,,,,,,,,
,,,,,,,,,,,,,,,,,,,,
,,,,,,,,,,,,,,,,,,,,
,,,,,,,,,,,,,,,,,,,,
,,,,,,,,,,,,,,,,,,,,
,,,,,,,,,,,,,,,,,,,,
,,,,,,,,,,,,,,,,,,,,
,,,,,,,,,,,,,,,,,,,,
,,,,,,,,,,,,,,,,,,,,
,,,,,,,,,,,,,,,,,,,,
,,,,,,,,,,,,,,,,,,,,
,,,,,,,,,,,,,,,,,,,,
,,,,,,,,,,,,,,,,,,,,
,,,,,,,,,,,,,,,,,,,,
,,,,,,,,,,,,,,,,,,,,
,,,,,,,,,,,,,,,,,,,,
,,,,,,,,,,,,,,,,,,,,
,,,,,,,,,,,,,,,,,,,,
,,,,,,,,,,,,,,,,,,,,
,,,,,,,,,,,,,,,,,,,,
,,,,,,,,,,,,,,,,,,,,
,,,,,,,,,,,,,,,,,,,,
,,,,,,,,,,,,,,,,,,,,
,,,,,,,,,,,,,,,,,,,,
,,,,,,,,,,,,,,,,,,,,
,,,,,,,,,,,,,,,,,,,,
,,,,,,,,,,,,,,,,,,,,
,,,,,,,,,,,,,,,,,,,,
,,,,,,,,,,,,,,,,,,,,
,,,,,,,,,,,,,,,,,,,,
,,,,,,,,,,,,,,,,,,,,
,,,,,,,,,,,,,,,,,,,,
,,,,,,,,,,,,,,,,,,,,
,,,,,,,,,,,,,,,,,,,,
,,,,,,,,,,,,,,,,,,,,
,,,,,,,,,,,,,,,,,,,,
,,,,,,,,,,,,,,,,,,,,
,,,,,,,,,,,,,,,,,,,,
,,,,,,,,,,,,,,,,,,,,
,,,,,,,,,,,,,,,,,,,,
,,,,,,,,,,,,,,,,,,,,
,,,,,,,,,,,,,,,,,,,,
,,,,,,,,,,,,,,,,,,,,
,,,,,,,,,,,,,,,,,,,,
,,,,,,,,,,,,,,,,,,,,
,,,,,,,,,,,,,,,,,,,,
,,,,,,,,,,,,,,,,,,,,
,,,,,,,,,,,,,,,,,,,,
,,,,,,,,,,,,,,,,,,,,
,,,,,,,,,,,,,,,,,,,,
,,,,,,,,,,,,,,,,,,,,
,,,,,,,,,,,,,,,,,,,,
,,,,,,,,,,,,,,,,,,,,
,,,,,,,,,,,,,,,,,,,,
,,,,,,,,,,,,,,,,,,,,
,,,,,,,,,,,,,,,,,,,,
,,,,,,,,,,,,,,,,,,,,
,,,,,,,,,,,,,,,,,,,,
,,,,,,,,,,,,,,,,,,,,
,,,,,,,,,,,,,,,,,,,,
,,,,,,,,,,,,,,,,,,,,
,,,,,,,,,,,,,,,,,,,,
,,,,,,,,,,,,,,,,,,,,
,,,,,,,,,,,,,,,,,,,,
,,,,,,,,,,,,,,,,,,,,
,,,,,,,,,,,,,,,,,,,,
,,,,,,,,,,,,,,,,,,,,
,,,,,,,,,,,,,,,,,,,,
,,,,,,,,,,,,,,,,,,,,
,,,,,,,,,,,,,,,,,,,,
,,,,,,,,,,,,,,,,,,,,
,,,,,,,,,,,,,,,,,,,,
,,,,,,,,,,,,,,,,,,,,
,,,,,,,,,,,,,,,,,,,,
,,,,,,,,,,,,,,,,,,,,
,,,,,,,,,,,,,,,,,,,,
,,,,,,,,,,,,,,,,,,,,
,,,,,,,,,,,,,,,,,,,,
,,,,,,,,,,,,,,,,,,,,
,,,,,,,,,,,,,,,,,,,,
,,,,,,,,,,,,,,,,,,,,
,,,,,,,,,,,,,,,,,,,,
,,,,,,,,,,,,,,,,,,,,
,,,,,,,,,,,,,,,,,,,,
,,,,,,,,,,,,,,,,,,,,
,,,,,,,,,,,,,,,,,,,,
,,,,,,,,,,,,,,,,,,,,
,,,,,,,,,,,,,,,,,,,,
,,,,,,,,,,,,,,,,,,,,
,,,,,,,,,,,,,,,,,,,,
,,,,,,,,,,,,,,,,,,,,
,,,,,,,,,,,,,,,,,,,,
,,,,,,,,,,,,,,,,,,,,
,,,,,,,,,,,,,,,,,,,,
,,,,,,,,,,,,,,,,,,,,
,,,,,,,,,,,,,,,,,,,,
,,,,,,,,,,,,,,,,,,,,
,,,,,,,,,,,,,,,,,,,,
,,,,,,,,,,,,,,,,,,,,
,,,,,,,,,,,,,,,,,,,,
,,,,,,,,,,,,,,,,,,,,
,,,,,,,,,,,,,,,,,,,,
,,,,,,,,,,,,,,,,,,,,
,,,,,,,,,,,,,,,,,,,,
,,,,,,,,,,,,,,,,,,,,
,,,,,,,,,,,,,,,,,,,,
,,,,,,,,,,,,,,,,,,,,
,,,,,,,,,,,,,,,,,,,,
,,,,,,,,,,,,,,,,,,,,
,,,,,,,,,,,,,,,,,,,,
,,,,,,,,,,,,,,,,,,,,
,,,,,,,,,,,,,,,,,,,,
,,,,,,,,,,,,,,,,,,,,
,,,,,,,,,,,,,,,,,,,,
,,,,,,,,,,,,,,,,,,,,
,,,,,,,,,,,,,,,,,,,,
,,,,,,,,,,,,,,,,,,,,
,,,,,,,,,,,,,,,,,,,,
,,,,,,,,,,,,,,,,,,,,
,,,,,,,,,,,,,,,,,,,,
,,,,,,,,,,,,,,,,,,,,
,,,,,,,,,,,,,,,,,,,,
,,,,,,,,,,,,,,,,,,,,
,,,,,,,,,,,,,,,,,,,,
,,,,,,,,,,,,,,,,,,,,
,,,,,,,,,,,,,,,,,,,,
,,,,,,,,,,,,,,,,,,,,
,,,,,,,,,,,,,,,,,,,,
,,,,,,,,,,,,,,,,,,,,
,,,,,,,,,,,,,,,,,,,,
,,,,,,,,,,,,,,,,,,,,
,,,,,,,,,,,,,,,,,,,,
,,,,,,,,,,,,,,,,,,,,
,,,,,,,,,,,,,,,,,,,,
,,,,,,,,,,,,,,,,,,,,
,,,,,,,,,,,,,,,,,,,,
,,,,,,,,,,,,,,,,,,,,
,,,,,,,,,,,,,,,,,,,,
,,,,,,,,,,,,,,,,,,,,
,,,,,,,,,,,,,,,,,,,,
,,,,,,,,,,,,,,,,,,,,
,,,,,,,,,,,,,,,,,,,,
,,,,,,,,,,,,,,,,,,,,
,,,,,,,,,,,,,,,,,,,,
,,,,,,,,,,,,,,,,,,,,
,,,,,,,,,,,,,,,,,,,,
,,,,,,,,,,,,,,,,,,,,
,,,,,,,,,,,,,,,,,,,,
,,,,,,,,,,,,,,,,,,,,
,,,,,,,,,,,,,,,,,,,,
,,,,,,,,,,,,,,,,,,,,
,,,,,,,,,,,,,,,,,,,,
,,,,,,,,,,,,,,,,,,,,
,,,,,,,,,,,,,,,,,,,,
,,,,,,,,,,,,,,,,,,,,
,,,,,,,,,,,,,,,,,,,,
,,,,,,,,,,,,,,,,,,,,
,,,,,,,,,,,,,,,,,,,,
,,,,,,,,,,,,,,,,,,,,
,,,,,,,,,,,,,,,,,,,,
,,,,,,,,,,,,,,,,,,,,
,,,,,,,,,,,,,,,,,,,,
,,,,,,,,,,,,,,,,,,,,
,,,,,,,,,,,,,,,,,,,,
,,,,,,,,,,,,,,,,,,,,
,,,,,,,,,,,,,,,,,,,,
,,,,,,,,,,,,,,,,,,,,
,,,,,,,,,,,,,,,,,,,,
,,,,,,,,,,,,,,,,,,,,
,,,,,,,,,,,,,,,,,,,,
,,,,,,,,,,,,,,,,,,,,
,,,,,,,,,,,,,,,,,,,,
,,,,,,,,,,,,,,,,,,,,
,,,,,,,,,,,,,,,,,,,,
,,,,,,,,,,,,,,,,,,,,
,,,,,,,,,,,,,,,,,,,,
,,,,,,,,,,,,,,,,,,,,
,,,,,,,,,,,,,,,,,,,,
,,,,,,,,,,,,,,,,,,,,
,,,,,,,,,,,,,,,,,,,,
,,,,,,,,,,,,,,,,,,,,
,,,,,,,,,,,,,,,,,,,,
,,,,,,,,,,,,,,,,,,,,
,,,,,,,,,,,,,,,,,,,,
,,,,,,,,,,,,,,,,,,,,
,,,,,,,,,,,,,,,,,,,,
,,,,,,,,,,,,,,,,,,,,
,,,,,,,,,,,,,,,,,,,,
,,,,,,,,,,,,,,,,,,,,
,,,,,,,,,,,,,,,,,,,,
,,,,,,,,,,,,,,,,,,,,
,,,,,,,,,,,,,,,,,,,,
,,,,,,,,,,,,,,,,,,,,
,,,,,,,,,,,,,,,,,,,,
,,,,,,,,,,,,,,,,,,,,
,,,,,,,,,,,,,,,,,,,,
,,,,,,,,,,,,,,,,,,,,
,,,,,,,,,,,,,,,,,,,,
,,,,,,,,,,,,,,,,,,,,
,,,,,,,,,,,,,,,,,,,,
,,,,,,,,,,,,,,,,,,,,
,,,,,,,,,,,,,,,,,,,,
,,,,,,,,,,,,,,,,,,,,
,,,,,,,,,,,,,,,,,,,,
,,,,,,,,,,,,,,,,,,,,
,,,,,,,,,,,,,,,,,,,,
,,,,,,,,,,,,,,,,,,,,
,,,,,,,,,,,,,,,,,,,,
,,,,,,,,,,,,,,,,,,,,
,,,,,,,,,,,,,,,,,,,,
,,,,,,,,,,,,,,,,,,,,
,,,,,,,,,,,,,,,,,,,,
,,,,,,,,,,,,,,,,,,,,
,,,,,,,,,,,,,,,,,,,,
,,,,,,,,,,,,,,,,,,,,
,,,,,,,,,,,,,,,,,,,,
,,,,,,,,,,,,,,,,,,,,
,,,,,,,,,,,,,,,,,,,,
,,,,,,,,,,,,,,,,,,,,
,,,,,,,,,,,,,,,,,,,,
,,,,,,,,,,,,,,,,,,,,
,,,,,,,,,,,,,,,,,,,,
,,,,,,,,,,,,,,,,,,,,
,,,,,,,,,,,,,,,,,,,,
,,,,,,,,,,,,,,,,,,,,
,,,,,,,,,,,,,,,,,,,,
,,,,,,,,,,,,,,,,,,,,
,,,,,,,,,,,,,,,,,,,,
,,,,,,,,,,,,,,,,,,,,
,,,,,,,,,,,,,,,,,,,,
,,,,,,,,,,,,,,,,,,,,
,,,,,,,,,,,,,,,,,,,,
,,,,,,,,,,,,,,,,,,,,
,,,,,,,,,,,,,,,,,,,,
,,,,,,,,,,,,,,,,,,,,
,,,,,,,,,,,,,,,,,,,,
,,,,,,,,,,,,,,,,,,,,
,,,,,,,,,,,,,,,,,,,,
,,,,,,,,,,,,,,,,,,,,
,,,,,,,,,,,,,,,,,,,,
,,,,,,,,,,,,,,,,,,,,
,,,,,,,,,,,,,,,,,,,,
,,,,,,,,,,,,,,,,,,,,
,,,,,,,,,,,,,,,,,,,,
,,,,,,,,,,,,,,,,,,,,
,,,,,,,,,,,,,,,,,,,,
,,,,,,,,,,,,,,,,,,,,
,,,,,,,,,,,,,,,,,,,,
,,,,,,,,,,,,,,,,,,,,
,,,,,,,,,,,,,,,,,,,,
,,,,,,,,,,,,,,,,,,,,
,,,,,,,,,,,,,,,,,,,,
,,,,,,,,,,,,,,,,,,,,
,,,,,,,,,,,,,,,,,,,,
,,,,,,,,,,,,,,,,,,,,
,,,,,,,,,,,,,,,,,,,,
,,,,,,,,,,,,,,,,,,,,
,,,,,,,,,,,,,,,,,,,,
,,,,,,,,,,,,,,,,,,,,
,,,,,,,,,,,,,,,,,,,,
,,,,,,,,,,,,,,,,,,,,
,,,,,,,,,,,,,,,,,,,,
,,,,,,,,,,,,,,,,,,,,
,,,,,,,,,,,,,,,,,,,,
,,,,,,,,,,,,,,,,,,,,
,,,,,,,,,,,,,,,,,,,,
,,,,,,,,,,,,,,,,,,,,
,,,,,,,,,,,,,,,,,,,,
,,,,,,,,,,,,,,,,,,,,
,,,,,,,,,,,,,,,,,,,,
,,,,,,,,,,,,,,,,,,,,
,,,,,,,,,,,,,,,,,,,,
,,,,,,,,,,,,,,,,,,,,
,,,,,,,,,,,,,,,,,,,,
,,,,,,,,,,,,,,,,,,,,
,,,,,,,,,,,,,,,,,,,,
,,,,,,,,,,,,,,,,,,,,
,,,,,,,,,,,,,,,,,,,,
,,,,,,,,,,,,,,,,,,,,
,,,,,,,,,,,,,,,,,,,,
,,,,,,,,,,,,,,,,,,,,
,,,,,,,,,,,,,,,,,,,,
,,,,,,,,,,,,,,,,,,,,
,,,,,,,,,,,,,,,,,,,,
,,,,,,,,,,,,,,,,,,,,
,,,,,,,,,,,,,,,,,,,,
,,,,,,,,,,,,,,,,,,,,
,,,,,,,,,,,,,,,,,,,,
,,,,,,,,,,,,,,,,,,,,
,,,,,,,,,,,,,,,,,,,,
,,,,,,,,,,,,,,,,,,,,
,,,,,,,,,,,,,,,,,,,,
,,,,,,,,,,,,,,,,,,,,
,,,,,,,,,,,,,,,,,,,,
,,,,,,,,,,,,,,,,,,,,
,,,,,,,,,,,,,,,,,,,,
,,,,,,,,,,,,,,,,,,,,
,,,,,,,,,,,,,,,,,,,,
,,,,,,,,,,,,,,,,,,,,
,,,,,,,,,,,,,,,,,,,,
,,,,,,,,,,,,,,,,,,,,
,,,,,,,,,,,,,,,,,,,,
,,,,,,,,,,,,,,,,,,,,
,,,,,,,,,,,,,,,,,,,,
,,,,,,,,,,,,,,,,,,,,
,,,,,,,,,,,,,,,,,,,,
,,,,,,,,,,,,,,,,,,,,
,,,,,,,,,,,,,,,,,,,,
,,,,,,,,,,,,,,,,,,,,
,,,,,,,,,,,,,,,,,,,,
,,,,,,,,,,,,,,,,,,,,
,,,,,,,,,,,,,,,,,,,,
,,,,,,,,,,,,,,,,,,,,
,,,,,,,,,,,,,,,,,,,,
,,,,,,,,,,,,,,,,,,,,
,,,,,,,,,,,,,,,,,,,,
,,,,,,,,,,,,,,,,,,,,
,,,,,,,,,,,,,,,,,,,,
,,,,,,,,,,,,,,,,,,,,
,,,,,,,,,,,,,,,,,,,,
,,,,,,,,,,,,,,,,,,,,
,,,,,,,,,,,,,,,,,,,,
,,,,,,,,,,,,,,,,,,,,
,,,,,,,,,,,,,,,,,,,,
,,,,,,,,,,,,,,,,,,,,
,,,,,,,,,,,,,,,,,,,,
,,,,,,,,,,,,,,,,,,,,
,,,,,,,,,,,,,,,,,,,,
,,,,,,,,,,,,,,,,,,,,
,,,,,,,,,,,,,,,,,,,,
,,,,,,,,,,,,,,,,,,,,
,,,,,,,,,,,,,,,,,,,,
,,,,,,,,,,,,,,,,,,,,
,,,,,,,,,,,,,,,,,,,,
,,,,,,,,,,,,,,,,,,,,
,,,,,,,,,,,,,,,,,,,,
,,,,,,,,,,,,,,,,,,,,
,,,,,,,,,,,,,,,,,,,,
,,,,,,,,,,,,,,,,,,,,
,,,,,,,,,,,,,,,,,,,,
,,,,,,,,,,,,,,,,,,,,
,,,,,,,,,,,,,,,,,,,,
,,,,,,,,,,,,,,,,,,,,
,,,,,,,,,,,,,,,,,,,,
,,,,,,,,,,,,,,,,,,,,
,,,,,,,,,,,,,,,,,,,,
,,,,,,,,,,,,,,,,,,,,
,,,,,,,,,,,,,,,,,,,,
,,,,,,,,,,,,,,,,,,,,
,,,,,,,,,,,,,,,,,,,,
,,,,,,,,,,,,,,,,,,,,
,,,,,,,,,,,,,,,,,,,,
,,,,,,,,,,,,,,,,,,,,
,,,,,,,,,,,,,,,,,,,,
,,,,,,,,,,,,,,,,,,,,
,,,,,,,,,,,,,,,,,,,,
,,,,,,,,,,,,,,,,,,,,
,,,,,,,,,,,,,,,,,,,,
,,,,,,,,,,,,,,,,,,,,
,,,,,,,,,,,,,,,,,,,,
